{"type":"Feature","geometry":{"type":"MultiPolygon","coordinates":[[[[-96.89782218542547,32.989546615543375],[-96.89784718537305,32.98807361562383],[-96.89696413745568,32.979291589248284],[-96.89405123297533,32.97082238024172],[-96.88922036565263,32.96299132202713],[-96.88265710808619,32.95609923353366],[-96.87461357762432,32.950410864818124],[-96.86539875541148,32.94614472701634],[-96.85536661607007,32.94346469799118],[-96.8449025310766,32.94247372643131],[-96.84425979446661,32.94246591171939],[-96.84300929664289,32.942450108293734],[-96.84274723008153,32.94244752296724],[-96.84166881645463,32.942433448581596],[-96.84166783392966,32.942433435407956],[-96.84113083418998,32.94242643526599],[-96.84080751460877,32.94242303482065],[-96.84074287325518,32.942422517755354],[-96.83983921723747,32.94241007086291],[-96.83979969323597,32.94240953897727],[-96.83827969235689,32.94238953865007],[-96.83823861192568,32.94238901115564],[-96.83689432297741,32.94237218347962],[-96.83592088735475,32.94235959167717],[-96.83579135081769,32.94235784123],[-96.83573121215694,32.94235705684963],[-96.83454909623413,32.942342192594595],[-96.83084054330156,32.942294328376015],[-96.83075559031043,32.9422932882075],[-96.8294605909272,32.94227828837378],[-96.82946054567071,32.94228104770207],[-96.82916469153196,32.942277256438786],[-96.82916476761534,32.942272938778885],[-96.82901673888283,32.94227109940966],[-96.82343375526033,32.94219935632525],[-96.82089762549097,32.94216653640143],[-96.8197909836202,32.94215172868326],[-96.81973374531017,32.94215098821501],[-96.8163818391006,32.942109126235316],[-96.81539938235086,32.9420964806405],[-96.81420809247835,32.94208064976977],[-96.81417373230798,32.94208020241497],[-96.80766573160436,32.94199720190787],[-96.80760192520023,32.941996419723104],[-96.8075949497977,32.94199633793677],[-96.80748906928724,32.941994892678885],[-96.80648831317406,32.94198251385024],[-96.80617896800997,32.94197820607057],[-96.80609769588006,32.941977125832246],[-96.80602334143424,32.94197618446602],[-96.80481066295089,32.94196064835544],[-96.80473485570614,32.94195941936478],[-96.80442358878095,32.941955127503256],[-96.80415958799654,32.941952127207166],[-96.8041239121085,32.94195173144912],[-96.8040006353967,32.94195039871607],[-96.79961022194628,32.94189448869799],[-96.79822241396346,32.94187580134339],[-96.79807227457319,32.941873955387344],[-96.79741739610598,32.941866669267654],[-96.7963384833459,32.94185250980225],[-96.79633665734491,32.941852485650585],[-96.79467913445386,32.941830779886146],[-96.79325307096306,32.94181109627515],[-96.79320056556367,32.94181039313222],[-96.79306358859725,32.94180861469107],[-96.79242490277109,32.94179999693612],[-96.78927600143543,32.9417561929426],[-96.789190929728,32.941755066047634],[-96.78733429139764,32.941731699855886],[-96.78653641816261,32.9417204089502],[-96.78647476439328,32.94171956583735],[-96.78526176386737,32.94170356590493],[-96.78519796336626,32.941702756275085],[-96.7847879631766,32.94169775578161],[-96.78478775066786,32.941697753037104],[-96.78463942350487,32.94169594440636],[-96.78264565997671,32.94167060820681],[-96.77955973337518,32.94162807821388],[-96.7794782211891,32.941627006757976],[-96.77743089758854,32.941601390618615],[-96.77560426234356,32.94157679872961],[-96.77551469187864,32.9415756553676],[-96.77428187032179,32.94156077848783],[-96.77336207413433,32.94154939975789],[-96.77230420498633,32.941534960901585],[-96.77225541652216,32.94153431374661],[-96.76908421423106,32.941493440338675],[-96.76894756127489,32.941491642137066],[-96.76701534329402,32.941465746606795],[-96.7670027410012,32.94146557919181],[-96.76533674202865,32.94144357866721],[-96.76529496110567,32.94144304074366],[-96.76352117888239,32.94142077180618],[-96.76232615961273,32.94140360490898],[-96.76216826693302,32.941401531158775],[-96.76161625646816,32.94139495970895],[-96.76028753772023,32.94137765833086],[-96.76007814774584,32.94137381162852],[-96.75944944327141,32.941365342077],[-96.75921329359345,32.94136331717904],[-96.75920765752069,32.94136324911524],[-96.75733330291412,32.94133786735686],[-96.75730876405804,32.941337539662605],[-96.75709806754845,32.94133476716068],[-96.75691492502663,32.94133225868042],[-96.75614812070012,32.94132129052886],[-96.75614127516404,32.94132115714578],[-96.75571491245755,32.94131426897973],[-96.75477991271292,32.94130226889319],[-96.75452926915204,32.94129954140119],[-96.75446384072907,32.9412989573699],[-96.75188228984078,32.94126315471485],[-96.75184260449007,32.94126261679129],[-96.74929284661413,32.94122883189848],[-96.74792657350585,32.94121004793719],[-96.7478878706801,32.941209527578486],[-96.74683691134551,32.941195712274386],[-96.74527519054132,32.941174490641146],[-96.74511702960213,32.941172130364315],[-96.7450613496895,32.941171323478976],[-96.74456334923838,32.941164323337006],[-96.74433351776,32.941161559068604],[-96.74243195154085,32.94113584906707],[-96.74243142945149,32.94113584193135],[-96.74200652938228,32.94113010042073],[-96.73985052264833,32.94109970609303],[-96.73893507633106,32.9410860861979],[-96.7387975680928,32.9410841875473],[-96.73683456782787,32.94105918782442],[-96.73682204948913,32.941059029740764],[-96.73654177735675,32.941055515123885],[-96.73585178772379,32.94104603724015],[-96.73579725824428,32.94104531159225],[-96.73432290476657,32.94102631246154],[-96.734008548594,32.94102150079021],[-96.73394068419124,32.941020497947],[-96.73316868455082,32.94100949795916],[-96.73314148474428,32.94100911647255],[-96.7307544842928,32.94097611650901],[-96.7303786894832,32.94097241965681],[-96.7298671934155,32.94096572854644],[-96.72915301779591,32.940955971820685],[-96.72915300598987,32.94095660964433],[-96.72895326286272,32.94095370430822],[-96.72895327204519,32.94095321029679],[-96.72794827231618,32.94093921001286],[-96.72794117754147,32.94093911175948],[-96.72692817790795,32.94092511202444],[-96.72691100405373,32.94092487709456],[-96.72599168601093,32.94091241812629],[-96.72598838359892,32.940912361589426],[-96.72572618979467,32.9409084144381],[-96.72405190232548,32.94088663182743],[-96.72333184270627,32.94087687510169],[-96.72331870586217,32.940876698355375],[-96.72109611830444,32.9408470373602],[-96.720058723455,32.94083238443228],[-96.71997242195164,32.94083122350541],[-96.7194391076644,32.94082440779438],[-96.71921302788348,32.940820864634624],[-96.71894889592085,32.940817809448376],[-96.71870656643635,32.9408139830554],[-96.7183886605808,32.940809750475246],[-96.7179696018783,32.940805209412396],[-96.71783224646269,32.94080288206966],[-96.71749124667929,32.94079788212508],[-96.71732974725407,32.94079571725722],[-96.71667507604847,32.94078776531989],[-96.71608741396356,32.94077904656705],[-96.71602360165642,32.9407781315481],[-96.7139286019831,32.94074913197934],[-96.71391938474459,32.94074900463417],[-96.71267838488082,32.940732004603056],[-96.71243507811849,32.94072937207103],[-96.71224015644728,32.94072647387064],[-96.71207635025284,32.94072390061999],[-96.71188287482164,32.9407212428385],[-96.71169614785462,32.940718403370575],[-96.71154199244276,32.94071629339287],[-96.7114827084082,32.94071373990268],[-96.71119300849624,32.9407002105763],[-96.70828800816028,32.94057321066671],[-96.70642889580846,32.94062093491538],[-96.70642953267878,32.94060382455505],[-96.70631453265757,32.94060082371006],[-96.70553767024006,32.940585257409886],[-96.70536841818131,32.94058289054624],[-96.70525804219281,32.94058094578791],[-96.7051353538154,32.940578901129484],[-96.70499404009661,32.94057668137146],[-96.70465493518279,32.940570828982715],[-96.7033249663063,32.94049278395916],[-96.7019389666154,32.94044778390907],[-96.70193881182509,32.94045112781755],[-96.70112608790234,32.94044186235873],[-96.70112642306273,32.94043191735974],[-96.70040742336363,32.94041491732862],[-96.70038088994252,32.94041429542312],[-96.69857288922137,32.94037229512022],[-96.69853104598872,32.940371336738046],[-96.69748580077794,32.94034773726312],[-96.69715794702113,32.940340152540955],[-96.69691466059143,32.94033419805652],[-96.69555032695334,32.94041222057511],[-96.69495906140237,32.94040158890023],[-96.6942093325464,32.94038781421485],[-96.69374130632141,32.940380922206494],[-96.69370546711649,32.94038052535065],[-96.69370048431132,32.94038041941264],[-96.69340887837963,32.94037489691375],[-96.69292887820559,32.94036689667309],[-96.69290270290105,32.94036646578534],[-96.69209334501174,32.94035330641864],[-96.6919455051759,32.940350666202],[-96.69154200552356,32.94034314131011],[-96.6912621544733,32.94033853273237],[-96.69112215516041,32.94033653253498],[-96.69101978497946,32.940335268414614],[-96.69066320122202,32.94032937870057],[-96.69007925869589,32.94031682093001],[-96.6894745611498,32.940306666250606],[-96.6887295612691,32.94029766591125],[-96.6871043062556,32.94029860453297],[-96.68491330641632,32.940327604650626],[-96.6842765915431,32.940339573998685],[-96.68340945620123,32.940326870220304],[-96.68304487975408,32.94032317007469],[-96.67966927750857,32.940274620278025],[-96.67964791513339,32.94027431673545],[-96.67684143292959,32.94023488638979],[-96.67668545348441,32.940232499216776],[-96.67656184685937,32.940230726813546],[-96.67571514843026,32.94021939913145],[-96.67449460056474,32.940201153642626],[-96.67420390173054,32.94019792719909],[-96.67351269082823,32.94018787351758],[-96.67310472127762,32.940181888843554],[-96.67306085330895,32.94018126035123],[-96.6724945044074,32.940173339152395],[-96.67080493270645,32.94014941637444],[-96.67066953250239,32.9401476423245],[-96.67036081830561,32.94014392241843],[-96.67028924811777,32.94014281253941],[-96.66996129794495,32.94013839223492],[-96.66899247454894,32.94012403242044],[-96.66896531016053,32.940123635564596],[-96.66757630976757,32.94010363578629],[-96.6675520135912,32.94010329052719],[-96.6673933272832,32.940101065829055],[-96.66719485986435,32.9400979403834],[-96.66684933639961,32.94009342951014],[-96.66662594774013,32.94009111424324],[-96.6664645086569,32.940088623327824],[-96.66612903344476,32.94008432378168],[-96.66606306456747,32.94008365082833],[-96.66599880953378,32.94008254204712],[-96.66236180907998,32.940030542403974],[-96.6622680723944,32.94002927059899],[-96.66166324432596,32.94002150638601],[-96.66144830288879,32.940017912178405],[-96.65491530354937,32.93992191203496],[-96.6548233325228,32.939920626507444],[-96.65004688514581,32.93985728326405],[-96.64938008520082,32.939847411268964],[-96.64876599529327,32.939837816469186],[-96.64866661991137,32.93983634102172],[-96.64191910939937,32.93974136128633],[-96.64154668718213,32.93973363110525],[-96.63975737673555,32.93970989220932],[-96.63501964726981,32.93964416014621],[-96.63467054067164,32.939640266238335],[-96.63409888823413,32.93963544413788],[-96.63346308308195,32.93962026591113],[-96.63272168666731,32.93960685130519],[-96.63111473692028,32.93958705901169],[-96.630401963596,32.93957610622938],[-96.63025619572034,32.93957370313822],[-96.6301490434369,32.939572026243866],[-96.62960904365103,32.939564026003204],[-96.62956942848068,32.93956345130324],[-96.62907642854377,32.939556451710175],[-96.62905975447862,32.939556216780296],[-96.62515810521995,32.93950183490425],[-96.62476291767634,32.93949578051972],[-96.62466631081102,32.93949346195941],[-96.62466628260769,32.93949430013213],[-96.62448445383588,32.93949151445657],[-96.62447749745421,32.93980952553238],[-96.62397334802343,32.93980837887696],[-96.62398074188451,32.93948206456681],[-96.62385474191261,32.93948006491832],[-96.62376895987505,32.93947876072814],[-96.6219799603209,32.93945276035767],[-96.62172408406032,32.93944955202788],[-96.62020708388332,32.93943355264436],[-96.62003716412734,32.93943198498142],[-96.61983097359006,32.9394303563904],[-96.61940873775075,32.939421404354384],[-96.61892569620939,32.9394129814595],[-96.61428256330255,32.9393494987951],[-96.6117705250715,32.93931218172057],[-96.60985557867264,32.93928328808981],[-96.60961961133243,32.93928016154636],[-96.60902876948715,32.939273418839235],[-96.60791331112736,32.939256856831584],[-96.60679940263839,32.939236111644924],[-96.6063794433973,32.93922966479576],[-96.60522044304675,32.93921566506073],[-96.60517453328889,32.939215126588266],[-96.60418826384384,32.93920391856672],[-96.60332993974386,32.93918759203785],[-96.60322583538665,32.93918569668066],[-96.6021338362861,32.939166697001056],[-96.60177230382983,32.93916142480129],[-96.60075708597239,32.93914948015381],[-96.59981681614227,32.939135787803664],[-96.59956102055631,32.939132572887054],[-96.5987562060251,32.93912406052121],[-96.59714833737456,32.93909527063286],[-96.5968436818323,32.93909053855226],[-96.59515071851814,32.93906826247907],[-96.58843625245883,32.93896834153157],[-96.58591656653684,32.93892957755244],[-96.58573372047782,32.938927025160055],[-96.58551812511715,32.93892432236863],[-96.58528857239251,32.938918334401194],[-96.58494457190704,32.93891033416053],[-96.58413342277898,32.93889659789826],[-96.58104044600334,32.93886376809421],[-96.57999247556478,32.93885211436457],[-96.57867403659905,32.93882945845148],[-96.57867322263812,32.93882944472894],[-96.57745022239553,32.938808444303035],[-96.57738573255281,32.93880736900482],[-96.57609243520714,32.93878646134329],[-96.57474634714943,32.93876440812414],[-96.57442895682433,32.93875690628612],[-96.57334730703043,32.9387404579011],[-96.57299225871421,32.93873805041873],[-96.57059156456702,32.938704201853334],[-96.56967596083588,32.93868757013518],[-96.56966666292276,32.93868740217129],[-96.56955566252586,32.9386854019739],[-96.56878295583476,32.93867844080395],[-96.56876758436947,32.93867816799986],[-96.56695407481843,32.93865103085419],[-96.56612378481856,32.93863538166988],[-96.56569737751146,32.938628761367816],[-96.56418752654811,32.938610336937074],[-96.56333060671112,32.938596432162015],[-96.56325229920925,32.93859520975818],[-96.5623192992768,32.93858120892534],[-96.56225922161393,32.93858033507401],[-96.56139259852306,32.938568141774105],[-96.56102307862422,32.93856146328847],[-96.56064584085405,32.93855575416304],[-96.56047419413665,32.93855366120128],[-96.56047420069557,32.93855340815765],[-96.56042120075423,32.93855240805895],[-96.56011850042353,32.93854741030999],[-96.5599011420274,32.93854433426548],[-96.55967083896327,32.93853959120685],[-96.55928735842102,32.938532839717304],[-96.55162535853697,32.93842083964144],[-96.55158483364556,32.93842026000136],[-96.5507447079018,32.93840850966504],[-96.54993769285574,32.93839677195346],[-96.54989567974728,32.938396174199625],[-96.54982044050428,32.938395129091],[-96.54814344092514,32.93836823510873],[-96.54797521336837,32.93836575791586],[-96.54709077430584,32.93835389285911],[-96.5458040365277,32.93833324537693],[-96.54576468896093,32.93833262621594],[-96.54479268973991,32.93831762528441],[-96.54409377867536,32.938310644354],[-96.54367086267692,32.938308722100636],[-96.54343584900246,32.93830430728515],[-96.54337259682636,32.9383031502006],[-96.54241759699251,32.93828615071838],[-96.54238930512717,32.938285653413544],[-96.540488305598,32.9382526529011],[-96.54027179002202,32.93824925959148],[-96.53998578933621,32.9382452597456],[-96.53995535008322,32.938244840933685],[-96.53987389036844,32.938243740386],[-96.53666726077205,32.93819377387433],[-96.53663240409207,32.93819324034199],[-96.53653399221427,32.9381917605033],[-96.53638326383374,32.938189329418165],[-96.53628832752322,32.93818786824214],[-96.53531527625277,32.93817361491457],[-96.53431923468527,32.938157442627045],[-96.53428896661987,32.938156958495846],[-96.53282996689842,32.93813395787255],[-96.53264450186599,32.938131336867464],[-96.5321484067787,32.93812374336288],[-96.52989973967655,32.93808820253388],[-96.52970091742058,32.93808458801692],[-96.52922313743814,32.93807768063932],[-96.52878411144094,32.938072967770275],[-96.52799857027156,32.93806074812309],[-96.52794512498014,32.938059938493254],[-96.52626913547338,32.93803526262231],[-96.52544893767083,32.93802261428299],[-96.52521592774389,32.93801944382741],[-96.52408418098294,32.938006100029774],[-96.52396962959129,32.93799216726074],[-96.5237719977778,32.93800105233076],[-96.52316929348494,32.93799074505672],[-96.52299453390809,32.9379873182641],[-96.5228490205182,32.937984630293016],[-96.52267602004143,32.937981630545835],[-96.52267431800387,32.93805040077924],[-96.52253520545584,32.938056654963944],[-96.52253691929944,32.93797981587718],[-96.52234491896746,32.937976816129996],[-96.52213844967643,32.937973922320815],[-96.51786645016071,32.93792092203007],[-96.5178662940586,32.93792975550335],[-96.51749714932951,32.93789782205559],[-96.51736514860936,32.9378968225058],[-96.51687899945566,32.93789498203877],[-96.51648100010661,32.93789498203877],[-96.5162497984716,32.93789543323587],[-96.51616196021524,32.937892570714084],[-96.51476096029346,32.93788657067081],[-96.51448600022361,32.93788598169941],[-96.51377700024118,32.93788598169941],[-96.51281389883968,32.937964730414805],[-96.51275629978952,32.93796305681386],[-96.51268438066758,32.93796100776422],[-96.51232638149702,32.93795100787507],[-96.51207626133728,32.93794450942916],[-96.5100372609956,32.93789550953319],[-96.50928872979688,32.93788188854026],[-96.50791373005669,32.93786488796024],[-96.50771661115007,32.937862753281955],[-96.50664061120266,32.937852753941705],[-96.50653476348674,32.937851857585414],[-96.50372450400576,32.93783037522392],[-96.49969118262841,32.93779103544702],[-96.4996277907475,32.93779044867122],[-96.49655978178076,32.937763554140055],[-96.49415858390917,32.93774165186884],[-96.49395688557046,32.93774012921583],[-96.49178288511833,32.9377271301284],[-96.49165940770385,32.93772651041851],[-96.49060121257794,32.93772221855698],[-96.49034371167495,32.937715815619946],[-96.48938274913453,32.9376991196803],[-96.48796674963774,32.93768511939637],[-96.48788045534917,32.93768432403797],[-96.4835623971883,32.93764743510667],[-96.48145385795371,32.937628555087606],[-96.48144182825388,32.9376284480518],[-96.47962075037472,32.937612483249076],[-96.47783956248432,32.937596570592],[-96.47219470274537,32.93754559959043],[-96.47216799944844,32.93754536411165],[-96.46733595414523,32.937503742550845],[-96.46657920790969,32.93749618417596],[-96.46644872229813,32.937495013368874],[-96.4643117219783,32.93747801333775],[-96.46431171017225,32.937479052957364],[-96.46403599189222,32.937473809849386],[-96.46344499197717,32.937470809004395],[-96.46339699320596,32.93747058285694],[-96.4495686227131,32.93741070702489],[-96.44902352337344,32.93740785822564],[-96.44886412411172,32.9374072231465],[-96.4441251248407,32.93739422296126],[-96.44408054129478,32.93739411592545],[-96.44312862939651,32.937392165678105],[-96.44076696930013,32.93738553439801],[-96.43798800041885,32.93713798197689],[-96.43733500042394,32.93713798197689],[-96.43707012008949,32.93713852813397],[-96.43516615527636,32.937146383464615],[-96.43430696605594,32.93714898141584],[-96.43411600006432,32.93714898141584],[-96.43386220888176,32.93714948311189],[-96.43323012525605,32.93715198171192],[-96.43245899991854,32.93715198171192],[-96.43209643836904,32.937153005413386],[-96.43191943892386,32.93715400496318],[-96.43189473609497,32.9371542536156],[-96.4316779089707,32.93715343685004],[-96.43164788292914,32.93715333091203],[-96.43043588329314,32.93714933106615],[-96.42934954781278,32.93715493699808],[-96.42883565052753,32.93716193714005],[-96.42854783630266,32.93715676429147],[-96.42300798670661,32.93705319699072],[-96.42254481538804,32.937046209473486],[-96.42184781559033,32.937038209781726],[-96.4211729442487,32.93703401123347],[-96.4202273728503,32.937033098959034],[-96.4195249101351,32.937030441177534],[-96.41952466286413,32.93707630355202],[-96.41696904394476,32.93726653527798],[-96.41692265604225,32.937266170258425],[-96.41386728413056,32.93699113872595],[-96.41374528378297,32.93699013862725],[-96.41306277196517,32.93698817136396],[-96.41265177219739,32.93698917146265],[-96.41257577867955,32.936989401452415],[-96.41206566785398,32.93699124631066],[-96.41157560237416,32.936992363874296],[-96.41054989878468,32.936983711538545],[-96.41035831297593,32.936981072419705],[-96.41013584715532,32.936978393231044],[-96.40955384737882,32.93697239318777],[-96.40952344813519,32.936972236750826],[-96.40879527383049,32.936967133063845],[-96.40663459911913,32.93694681876493],[-96.40599580179146,32.93694399137284],[-96.39869880206025,32.93694799176763],[-96.39863596965449,32.936948056538014],[-96.3980000621833,32.93694902754493],[-96.39692346734259,32.93695000898097],[-96.39357680695053,32.937228747245875],[-96.3930830684802,32.93722598572198],[-96.3930830671684,32.93722617564193],[-96.39276979649571,32.93722469799885],[-96.3927697971516,32.93722449929648],[-96.39233679813832,32.937222760376244],[-96.39190450355213,32.93722015144699],[-96.3918244644976,32.937219718363636],[-96.39059885511998,32.93721384895894],[-96.38991719858424,32.93721000335441],[-96.38980532847567,32.937209469822065],[-96.38929232844954,32.937207469624674],[-96.38928416588402,32.93720743833728],[-96.38907091664603,32.93720663419646],[-96.38819491299975,32.93720191419169],[-96.38814093906005,32.93720164577881],[-96.38771867960865,32.93719972572105],[-96.38636454311047,32.93719281724565],[-96.38630116172382,32.93719252523],[-96.38581516145742,32.937190525581514],[-96.38569217989665,32.93719027253788],[-96.3854259398998,32.93718887119213],[-96.385375751108,32.93718862693092],[-96.38359075117816,32.93718062669026],[-96.38356138693078,32.937180501540695],[-96.38309014946267,32.937178605085705],[-96.38000565467156,32.93716372820593],[-96.37992208954614,32.93716337965342],[-96.3796629449799,32.93716246683008],[-96.37898991997189,32.937159574667604],[-96.3789475605529,32.93715940670372],[-96.37625907513704,32.9371496263752],[-96.37579448119052,32.93714705971137],[-96.37251221553699,32.937127161479864],[-96.37243621611613,32.9371269309412],[-96.37110622559523,32.93711909591991],[-96.37094507444823,32.93711834886485],[-96.36728641778001,32.937105978818636],[-96.3645517031873,32.93697997681213],[-96.36139547226789,32.9369123016374],[-96.35727447201575,32.93692530127373],[-96.35667122595679,32.93698536647683],[-96.35584100023425,32.93696298227003],[-96.35502500013514,32.93696298227003],[-96.35375308221782,32.93704383766972],[-96.35198163299941,32.93704565288728],[-96.35198168743838,32.937037733884054],[-96.35136168729557,32.937034733587964],[-96.3513308072837,32.93703459142245],[-96.34216544713527,32.936994646756006],[-96.33797122188189,32.936974707356875],[-96.33796909089149,32.9372886472296],[-96.33776582825236,32.937286318240155],[-96.33779317956976,32.93696382538287],[-96.33769217954543,32.9369578258885],[-96.33627188133795,32.93689088349739],[-96.33627169768842,32.93685335619354],[-96.3352970257109,32.936856685281676],[-96.33472960573907,32.936855153297344],[-96.33363000026868,32.936835981811534],[-96.33321324505594,32.936835981811534],[-96.33287681814573,32.93682858152031],[-96.33187419930165,32.93681955757818],[-96.3305793120758,32.93680352745617],[-96.33019982984608,32.93679823165364],[-96.32985625372218,32.9367958346004],[-96.32980851796333,32.93679517152728],[-96.32920355806077,32.93679097133232],[-96.32920356593146,32.93678977198235],[-96.32884194099455,32.936787977623055],[-96.3287233001215,32.93678723605701],[-96.32852079110131,32.936786289750664],[-96.3283752567229,32.93678583910246],[-96.32759069873437,32.936773779734544],[-96.32690857979539,32.93676299875843],[-96.3267966585273,32.936761327353096],[-96.32619109914022,32.936752812242744],[-96.32556419311933,32.936743327772184],[-96.32552223182628,32.93674270696449],[-96.32469323196433,32.936730706877945],[-96.32469278005532,32.93675258554639],[-96.32461901328797,32.936751610697165],[-96.32337372586368,32.936712664482705],[-96.32222072560548,32.93669066450701],[-96.32008608846151,32.936685430181456],[-96.31985749071441,32.936688670347536],[-96.31870071514668,32.936673379595966],[-96.31855328721048,32.936695686956554],[-96.31467837732275,32.936640493255055],[-96.31380500380004,32.93663399480914],[-96.30939758177996,32.93663118004179],[-96.3047181557915,32.93658597744702],[-96.30416247299203,32.936592960024136],[-96.30412070715454,32.93659237050383],[-96.30407895049953,32.93659400897507],[-96.3018651144976,32.93662182675871],[-96.3015491140059,32.93663282619766],[-96.30155211339618,32.93669317573178],[-96.29898010047718,32.93679411544063],[-96.29834416414677,32.93679036095375],[-96.29797644335738,32.9367876834118],[-96.29750899956377,32.936785981816875],[-96.29722699981406,32.936785981816875],[-96.28690290954222,32.9376238575878],[-96.27696356830616,32.94010626063369],[-96.26777938539311,32.944140678531795],[-96.25969262908002,32.94957676055001],[-96.25300466889439,32.95621191918761],[-96.24796474610181,32.963798882512194],[-96.24476068366344,32.97205490527724],[-96.24351188656553,32.98067231112607],[-96.24336488692626,32.985794311106055],[-96.24336488758215,32.985794311654956],[-96.24332112455606,32.987312060227666],[-96.24331224838096,32.98761778853261],[-96.24331049583976,32.987684837959534],[-96.24330352568438,32.98791553086834],[-96.2433015429254,32.98797767805517],[-96.24329598031244,32.98818510961243],[-96.24329573894448,32.98818510467231],[-96.24328332554833,32.98863462927548],[-96.24328009069312,32.9887400853466],[-96.24326991454171,32.989141791838925],[-96.2432689149636,32.98919179128469],[-96.24326154537047,32.98983820030108],[-96.24326055103947,32.990191759341606],[-96.24325455094711,32.992277758833424],[-96.24325439550091,32.9923859994823],[-96.24325439550091,32.992411312627986],[-96.24325370943875,32.992579468629835],[-96.24325339592278,32.99273299969774],[-96.24325339592278,32.99284463914526],[-96.24324553703485,32.995718079134384],[-96.24324607355383,32.995959609007265],[-96.24311465264147,33.00057952486131],[-96.24311465198558,33.00057952431241],[-96.2430336513946,33.00342352451369],[-96.2430320483966,33.003481375996685],[-96.24302304956984,33.003815375477984],[-96.24303402328489,33.00569194650856],[-96.24303242553401,33.006964758725125],[-96.24303241438386,33.00697457198773],[-96.24302841410366,33.01099657153628],[-96.2430283957387,33.011033999488944],[-96.2430283957387,33.0118847321818],[-96.24300853076305,33.019305260859916],[-96.24300848419477,33.019324228154325],[-96.24300748461664,33.01978422799542],[-96.24300739607133,33.01986600006077],[-96.24300739607133,33.019923655037],[-96.24300705500794,33.019981280921435],[-96.24300688054089,33.02001306177455],[-96.24300588096276,33.02021006200601],[-96.24300555104949,33.02029313881043],[-96.24299655091096,33.0234331385849],[-96.24299654959917,33.023433447067596],[-96.24298773966908,33.026515862125244],[-96.24296019945503,33.030003101985145],[-96.24295866007846,33.03014949513679],[-96.24291666008783,33.035272495215466],[-96.242915429636,33.03563142196464],[-96.24292043015024,33.039363421983275],[-96.24292044982697,33.03937664666926],[-96.24292139562202,33.03993584784787],[-96.24292139562202,33.04067499982567],[-96.24292148023198,33.040754797492006],[-96.24292221679777,33.041102262078184],[-96.24291477636841,33.04275676563953],[-96.24291467208171,33.04278189160977],[-96.24289967185081,33.04669889122442],[-96.24289951050159,33.04678317231894],[-96.24289379965722,33.04801680009775],[-96.24289347630288,33.04811339250601],[-96.24289346712041,33.04811777219179],[-96.24282873459795,33.05046225987108],[-96.2428279521198,33.05049099486927],[-96.24281232157749,33.05107322631186],[-96.24274766317073,33.05342083284998],[-96.24273348345967,33.05437595564707],[-96.2427274833673,33.05716195561303],[-96.24272743089601,33.05719186690733],[-96.24272343061581,33.06013586709794],[-96.24272340700374,33.06015788628519],[-96.2427224074256,33.0614498859057],[-96.24272239627545,33.06147899964599],[-96.24272239627545,33.06164697121691],[-96.2427214786837,33.062459100758794],[-96.24272068243184,33.06266306600252],[-96.2427203958074,33.06280999982222],[-96.2427203958074,33.06295605045927],[-96.24271956282563,33.06323605064893],[-96.24271939622926,33.06334800022585],[-96.24271939622926,33.06340099118527],[-96.24271839599524,33.06350700054919],[-96.24271839599524,33.06489164048652],[-96.2426746749462,33.06647840080933],[-96.24267422172541,33.06649497818622],[-96.24264022229518,33.067748977898624],[-96.24263992648827,33.067759942207864],[-96.24262639610946,33.06826441844693],[-96.24254688832677,33.07112871099107],[-96.24254489113818,33.071203314950566],[-96.24253489076561,33.071591314821305],[-96.24252246293986,33.07249011482632],[-96.24252146270584,33.07302111453908],[-96.24252143122305,33.07304043807063],[-96.2425212495412,33.073173093862195],[-96.24251257013344,33.07343174507344],[-96.24251118620309,33.073473687741675],[-96.24248818606767,33.07418268800629],[-96.24247189438707,33.07488989281379],[-96.24245389476587,33.07620989190438],[-96.24245078518587,33.07689405162756],[-96.24245639633477,33.078128485742816],[-96.24245639633477,33.07868500004814],[-96.24245676101026,33.0788506722703],[-96.2424999101222,33.08865160216088],[-96.24245304210737,33.09665051063913],[-96.24245239605457,33.09687100001629],[-96.24245239605457,33.09879266221462],[-96.24244952981019,33.0990087021955],[-96.24243414785063,33.099218610396726],[-96.24233359907943,33.10209451056277],[-96.24234559860825,33.105750510216275],[-96.2423456471442,33.10576444627872],[-96.24235964320573,33.1095962108079],[-96.24235964254984,33.1095962113568],[-96.24239328779883,33.11889129330325],[-96.24238944362072,33.121318401649745],[-96.24239192354521,33.12181412290846],[-96.24245108689581,33.12691883303729],[-96.24236527665494,33.12957981901961],[-96.242337964691,33.130372817694415],[-96.2422782241562,33.13208739194787],[-96.24227644800293,33.13213939323773],[-96.24225920331246,33.1326547843849],[-96.24221902014035,33.133813249422396],[-96.24222970526328,33.13381350905285],[-96.2421944937462,33.13515229375142],[-96.24219444521025,33.135152293202516],[-96.24219444193079,33.135154249487776],[-96.2421943960184,33.135155999934945],[-96.2421943960184,33.1351827863325],[-96.24218644530573,33.14011129301328],[-96.2421863961139,33.14017199988234],[-96.2421863961139,33.14025338442316],[-96.24217890846037,33.14197930886368],[-96.24217713558656,33.14226201623598],[-96.24217664629175,33.142360718621944],[-96.24217584479275,33.14258036927748],[-96.24217119714797,33.1432923451376],[-96.24217074786253,33.143375164507184],[-96.2421697482844,33.143606163703076],[-96.24216997391095,33.1439168925015],[-96.24216962628863,33.14402877236792],[-96.24216876116819,33.144225295054994],[-96.2421683964927,33.14439099966234],[-96.2421683964927,33.14440827633987],[-96.24216485271275,33.1451276135192],[-96.24216473989947,33.14515214667573],[-96.24216273943142,33.14562014675749],[-96.2421626672834,33.145638010759704],[-96.24215776580873,33.1469278625283],[-96.24215594374309,33.14727790859866],[-96.24215395770464,33.14764138683981],[-96.2421536933805,33.14769753782568],[-96.24215269249058,33.147949537996375],[-96.24215247211116,33.14806034476018],[-96.24215193165684,33.14816422164143],[-96.24215095175543,33.14834443756009],[-96.2421506061008,33.148423197253514],[-96.2421505090289,33.14845214961674],[-96.24214168794865,33.14879721989419],[-96.24214145051604,33.14880655341681],[-96.24213162592231,33.14919462793817],[-96.24207106486766,33.151555512405736],[-96.24204035473161,33.15272545991559],[-96.24203506628116,33.15295320357615],[-96.2420330671249,33.15305220346678],[-96.24202985129052,33.15323297542275],[-96.2420288510565,33.153297975800044],[-96.24211648073947,33.153298920459676],[-96.24212295504114,33.15335226491172],[-96.24207357561903,33.153775133755914],[-96.2420395761888,33.156056133830695],[-96.2420395020731,33.15606112005273],[-96.24200126820953,33.15864920147488],[-96.24200078678541,33.15867667619503],[-96.24199713806287,33.158849595015965],[-96.24199645200072,33.158892811135885],[-96.24199579610955,33.15893152132266],[-96.24199408292183,33.15904785497657],[-96.24193879326445,33.16204614647447],[-96.24193780090113,33.16210224092347],[-96.2418547998421,33.16699924065303],[-96.2418503023964,33.1673756784607],[-96.24183932933724,33.16895578170504],[-96.2417813793853,33.17697299934469],[-96.24178077596542,33.17707588875198],[-96.24177877615327,33.17752088930825],[-96.24178464703508,33.17757408171455],[-96.24178364876872,33.177574078970046],[-96.24175064826073,33.18657807950155],[-96.24175046789067,33.18664238936064],[-96.24174953521343,33.18711919437279],[-96.24174897836184,33.1871799155133],[-96.24174760951698,33.187398358585334],[-96.24173581593797,33.190902777967175],[-96.24172643538256,33.19231550629663],[-96.24166969686159,33.19913805444776],[-96.24166892094235,33.199252144740875],[-96.24166565657204,33.19986985114427],[-96.24164749297805,33.201301168574936],[-96.24159153168812,33.20563625335643],[-96.2415915034848,33.20563845939192],[-96.24156832560287,33.20744213409584],[-96.24152678276839,33.2087084851918],[-96.24143433950017,33.210852569998686],[-96.24140694161451,33.21172044324146],[-96.24133394092804,33.215365443456015],[-96.24132823729849,33.216491332282004],[-96.24134323752939,33.21800733260315],[-96.2413437196094,33.218053202662254],[-96.24134471984343,33.21814320276243],[-96.24138661423558,33.21954890021142],[-96.24141261441717,33.22008490041765],[-96.24141553837998,33.22012295576483],[-96.2414282593891,33.22038529449696],[-96.24152823425553,33.22738447478828],[-96.24158162904334,33.22892190038515],[-96.24165180546245,33.23019328545759],[-96.24159871172868,33.23135414425492],[-96.24156172471422,33.23349264179253],[-96.24160472428298,33.23735764231293],[-96.24160488169686,33.2373715163495],[-96.24162081198142,33.238757456634694],[-96.24162312465367,33.23896272222628],[-96.24159282904084,33.24092627000707],[-96.24133980131559,33.24466060395527],[-96.24134580075206,33.245953604223374],[-96.24134582829949,33.24595949009512],[-96.2413545260722,33.24777293360062],[-96.24135196088186,33.24799264353753],[-96.24135109838498,33.24807405003442],[-96.24133509857595,33.24975605027197],[-96.24137857628938,33.2519576264824],[-96.24148144429174,33.25405554317662],[-96.24149349235651,33.25914432802364],[-96.24151744156644,33.26998500706492],[-96.24153041771721,33.28187606583398],[-96.24153080206943,33.28200997751238],[-96.24154459874005,33.284977107318156],[-96.24154539564782,33.28532072190859],[-96.24154539564782,33.28541799989493],[-96.2415458193535,33.285596594907204],[-96.24156981972294,33.2906535950588],[-96.24156982037884,33.2906535945099],[-96.24157269449391,33.29126606274542],[-96.24157357535574,33.29152559384592],[-96.24157554434102,33.29222669486776],[-96.24157590311349,33.29231640185448],[-96.24157781438034,33.292684476597536],[-96.24158155558352,33.2935598061195],[-96.24158347012984,33.294526534342886],[-96.24158347406518,33.29452863444036],[-96.24158547387734,33.295510634203765],[-96.24158652592676,33.29560263779474],[-96.2415904278233,33.298455291429576],[-96.2415944281035,33.30152306618404],[-96.24159459404396,33.30159617768011],[-96.24160539591553,33.304923169014465],[-96.24160539591553,33.304997000120515],[-96.24160546543999,33.30506942768521],[-96.24162141868075,33.31335826214056],[-96.24162147639917,33.31341404261786],[-96.2416484761589,33.32643304200704],[-96.24164848206192,33.3264358622634],[-96.24166132113145,33.33241084872616],[-96.2416474601835,33.3399235703663],[-96.2416477723877,33.3401613095248],[-96.24165473270472,33.34171750975164],[-96.24169470467987,33.35157755304997],[-96.24198079587865,33.35399017698133],[-96.24234524901827,33.358977312389754],[-96.24493170728424,33.367335867776056],[-96.24937945283713,33.375126616853535],[-96.25552449386532,33.38206230844255],[-96.2631402580136,33.387887217526206],[-96.27194594515724,33.3923865753797],[-96.28161688195563,33.39539448582905],[-96.29179649383383,33.39680004605265],[-96.30210944904138,33.39655143095805],[-96.30614503258735,33.39612721071814],[-96.31202991110621,33.39550995715856],[-96.31496176428227,33.39513338596781],[-96.31701176457466,33.394821386462205],[-96.31706274830655,33.394813605782176],[-96.31774296122582,33.394709513731506],[-96.31934939806595,33.39462166697227],[-96.31957339801599,33.394593666953305],[-96.32106867376591,33.39432764179811],[-96.32175352580337,33.394257319271006],[-96.32175178638,33.39424545092085],[-96.32278588799993,33.3941444409526],[-96.32362088795425,33.39404544106198],[-96.32435945747798,33.393953488518854],[-96.32438245695751,33.393950488222764],[-96.32458497253661,33.393923345039184],[-96.32491837710033,33.393881669686024],[-96.32509570317931,33.393859250898416],[-96.32523497642069,33.39384144398196],[-96.32534728269688,33.393827878976985],[-96.32544756714394,33.39381568512818],[-96.32583156715201,33.393768684880705],[-96.32582547129954,33.393733803282515],[-96.3269076425269,33.3936394690554],[-96.32705580374943,33.393619033449234],[-96.32807384193887,33.393479454910825],[-96.32917202543722,33.393315992566464],[-96.32966039019126,33.3932539008187],[-96.33031293303003,33.39316685380908],[-96.33031293893305,33.393166882900864],[-96.3303344449484,33.39316398415157],[-96.33043475103987,33.39315060357753],[-96.33046343184866,33.39314659769373],[-96.33085775099238,33.39309344700395],[-96.33085596565664,33.39341790328222],[-96.330859687839,33.39415248345868],[-96.33085925101547,33.394152487301],[-96.33085999282838,33.39421273583723],[-96.33085999676372,33.39421345654502],[-96.33086002168758,33.39421502969697],[-96.33087020177433,33.395041504781894],[-96.33087020111844,33.395041505330795],[-96.33088820073964,33.396515504800135],[-96.33088900682988,33.39657024236441],[-96.33089000968747,33.396678507713865],[-96.33089296316537,33.396913518282574],[-96.3308804684387,33.39699973205958],[-96.33180074932974,33.40615308212668],[-96.33492446050938,33.414958937966915],[-96.34012124754433,33.42304982533556],[-96.34717424526859,33.430088106082685],[-96.35578912711394,33.435780068456936],[-96.36560638863959,33.439888182980205],[-96.37621634973078,33.44224101561036],[-96.37641857278243,33.442267755900176],[-96.37674601136013,33.442311473167244],[-96.37688797637884,33.44232941511349],[-96.37695560794023,33.44233869374596],[-96.37700672940927,33.4423456862033],[-96.37711672957214,33.44236068658593],[-96.37747595132383,33.442407785635694],[-96.37747594935615,33.442407793320314],[-96.37790494874514,33.44246479345694],[-96.37790522421942,33.44246334216114],[-96.37790930714192,33.44246385648193],[-96.37791103279156,33.44245425783984],[-96.38438003486252,33.443006858476835],[-96.38470830183077,33.44301757303586],[-96.38523753975443,33.44303497047173],[-96.38770516693891,33.44311938000921],[-96.38792090593975,33.44313462190854],[-96.38792090528386,33.44313462245744],[-96.38810490571133,33.44314762264268],[-96.38842002402943,33.443169105553075],[-96.38843713163864,33.44317022970353],[-96.3886036296104,33.443182122205364],[-96.3886063167965,33.44315577932029],[-96.39149688162384,33.443333889652465],[-96.39190463866571,33.4433457486713],[-96.3919977876728,33.443348571123266],[-96.39265816644331,33.44336518033646],[-96.39280816612876,33.44336818063254],[-96.39628679772586,33.44315065312835],[-96.39629250069952,33.44327484485741],[-96.39655555962422,33.44326638408832],[-96.39667867564268,33.44326272730593],[-96.39685570329118,33.4432572251164],[-96.39841954131204,33.44320645775732],[-96.40068948945887,33.44313326502381],[-96.401123019744,33.44315841020561],[-96.4031925465722,33.4432449275252],[-96.40358254667262,33.44325492741435],[-96.40744002231735,33.44323789609584],[-96.40831359063974,33.44320777347443],[-96.40935640774143,33.443172654750754],[-96.4094674389652,33.44316881957535],[-96.40986334864499,33.44315480007986],[-96.40991402869928,33.44315594618638],[-96.4101213001452,33.443161109703624],[-96.41105475461025,33.44317757181119],[-96.41137083971192,33.44318084710697],[-96.41552569247467,33.44323296750847],[-96.41892455196495,33.44317710579374],[-96.41943244522248,33.443178624604435],[-96.42013025438987,33.4431814805394],[-96.42013080599435,33.443181482735014],[-96.42208980597908,33.443189482975676],[-96.42235199978334,33.44319001815472],[-96.42246845916237,33.44319001815472],[-96.42314487906306,33.443193168300944],[-96.42328013234749,33.44319393840987],[-96.42677842428219,33.44332948416831],[-96.42706379137714,33.443340863996056],[-96.4279027443875,33.44337450123434],[-96.42907090950527,33.4434106842782],[-96.4422449098466,33.44369868415962],[-96.44230197500136,33.44369990656346],[-96.44312138179916,33.44371709102551],[-96.44409065251295,33.44374003730754],[-96.44421978567694,33.44374296459972],[-96.445869365726,33.44377869534867],[-96.44676377302243,33.443798417382766],[-96.44676694163263,33.44379848709327],[-96.4472669418959,33.44380948763002],[-96.45008458212017,33.44380962979553],[-96.45022158138687,33.44380662949944],[-96.45044722368839,33.44380129088259],[-96.45117835999756,33.443782706172584],[-96.45224724024641,33.443793567837226],[-96.45383803801764,33.44381041692041],[-96.45390946587709,33.443811133785886],[-96.45665246503108,33.44383713415636],[-96.45677086912742,33.44383814742869],[-96.4570704172452,33.44384043415272],[-96.45934679378132,33.443864446950535],[-96.46115475974024,33.44384572666184],[-96.46115504964413,33.443857610381244],[-96.4636043230262,33.44381567429983],[-96.47055559858997,33.443697788352225],[-96.47062700742858,33.4436965374055],[-96.47108707966142,33.443688223193135],[-96.472652341622,33.443661778212366],[-96.47445496010026,33.44368280882786],[-96.47485294961093,33.443688347793795],[-96.48352347201543,33.443817772750606],[-96.48635792141842,33.44386071935985],[-96.48652645199691,33.443864538617106],[-96.48665820479019,33.443866031080525],[-96.48665817593098,33.44386699440281],[-96.48694517619492,33.44387299444608],[-96.48700385418604,33.44387419434496],[-96.48701829559768,33.4438744830672],[-96.48721993752976,33.44387873705451],[-96.48851084218445,33.44389235200953],[-96.48872600006572,33.44389601867214],[-96.48876590186053,33.44389601867214],[-96.48889599984042,33.44389901841933],[-96.48895299940607,33.44389901841933],[-96.48895299940607,33.44387437658029],[-96.49102221009473,33.44389775759238],[-96.49737949947098,33.443972572878984],[-96.49737974739784,33.44397257617239],[-96.49950474687707,33.443997575895274],[-96.5003999996172,33.443977302215075],[-96.5003999996172,33.44399901785975],[-96.50158404582771,33.44399901785975],[-96.50259565300429,33.44402096294529],[-96.50302890453568,33.44403095460091],[-96.50335150066894,33.444037583136506],[-96.50395988366748,33.44404855348367],[-96.50395988301159,33.44404855403257],[-96.50484588375097,33.44406455341609],[-96.50485146276121,33.44406465386508],[-96.50579746245653,33.4440816544451],[-96.50579746311242,33.4440816538962],[-96.5064064521544,33.444092617656544],[-96.50650098378006,33.44409424954097],[-96.50721157036321,33.44410599493717],[-96.50930266945177,33.44414151875022],[-96.50995692023113,33.4441541182373],[-96.51042431024167,33.44416141643283],[-96.51052902588944,33.44416267012406],[-96.51078236844245,33.444166196267865],[-96.51109403021411,33.44417218094189],[-96.51132290737085,33.444175521556964],[-96.5116528291525,33.44418080089245],[-96.51178696283071,33.444181873446155],[-96.51178695036879,33.44418246845548],[-96.51212932358828,33.44418735971754],[-96.51223076305968,33.444189139256494],[-96.5122307689627,33.444188911462334],[-96.5124885722315,33.444193491497195],[-96.51528952724047,33.44423343396804],[-96.51973817070837,33.44429738594329],[-96.51973818120263,33.44429689357856],[-96.52004921463056,33.44430160754541],[-96.52030823523337,33.44430427740274],[-96.52496131735326,33.44435688248434],[-96.52496418425353,33.44435691486954],[-96.52496421901576,33.44435691541844],[-96.52582989565568,33.444366741305785],[-96.52760499097306,33.44438759023485],[-96.52763106920571,33.44438789158182],[-96.532217069401,33.444439891773875],[-96.53228327308734,33.444440608090446],[-96.53267127206382,33.444444607387425],[-96.53270964563221,33.44444499161854],[-96.5330431354618,33.444448229589014],[-96.5336225221679,33.44445527364311],[-96.53381930919358,33.44445736440926],[-96.5339700979161,33.44445873556543],[-96.53798978397205,33.444503956273955],[-96.53798980627235,33.44450257633536],[-96.53840268975956,33.444508024183634],[-96.53921002094516,33.44451251749204],[-96.5400823614393,33.4445247289057],[-96.54094074456948,33.44453073608469],[-96.54094074391358,33.44453096003654],[-96.54098027512988,33.44453101327999],[-96.54098099988961,33.444531018220104],[-96.5409840517512,33.444531018220104],[-96.54168474356025,33.44453195958633],[-96.54177099980713,33.444532017769895],[-96.54188595457184,33.444532017769895],[-96.55012615071954,33.44472112150309],[-96.55245151314305,33.444614815183414],[-96.55291315033222,33.44462756232502],[-96.5529313578709,33.444627449800194],[-96.55491826668052,33.44470813394259],[-96.55540026666672,33.44472013402913],[-96.55540951604391,33.44472036347],[-96.55622019358623,33.444740429665394],[-96.55717588144991,33.44477192399188],[-96.5572788812864,33.44477392364037],[-96.55738631494714,33.44477576794971],[-96.55744926213384,33.44477722912574],[-96.55766660675626,33.44478680690957],[-96.55774981835634,33.444784204018234],[-96.55811758046687,33.44479273888904],[-96.55811824554051,33.44477267982936],[-96.55826653728538,33.444768041610935],[-96.56045217127907,33.444815614362774],[-96.56186117110536,33.444820614307346],[-96.56187900216253,33.44482067468652],[-96.56261993158266,33.444823098087035],[-96.56360903513345,33.44485601845985],[-96.56360814968038,33.444882682452345],[-96.56365114990503,33.44488368200214],[-96.56482043266135,33.44489726951208],[-96.56482999948986,33.44489801821385],[-96.56487090414225,33.44489801821385],[-96.56488742079353,33.44489856766434],[-96.56488741029926,33.44489969840161],[-96.5649294909645,33.44489996791229],[-96.56493100017008,33.44490001841124],[-96.56493732689623,33.44490001841124],[-96.5655114094105,33.444903698796395],[-96.56575533730175,33.44490448043226],[-96.56575533664586,33.44490452489329],[-96.56601033597995,33.44490552444308],[-96.5660103392594,33.444905037018465],[-96.56634699966688,33.4449070185532],[-96.5663509907646,33.4449070185532],[-96.56668500005998,33.44490901820169],[-96.5667069756934,33.44490901820169],[-96.56679729846549,33.44490977019687],[-96.56679729649781,33.44490993102504],[-96.56716929632114,33.444912930772226],[-96.56716948718547,33.44491293241893],[-96.56729348734521,33.44491393196872],[-96.5676290032226,33.44491575981101],[-96.56789121735949,33.44491650302376],[-96.56886062253096,33.44492198984405],[-96.5689011670991,33.44492220611128],[-96.56910016775745,33.44492320675887],[-96.5698393682485,33.444866109466666],[-96.57049278211072,33.44488428195158],[-96.57086678174622,33.44488928189615],[-96.57086679551993,33.44488857545981],[-96.57145972178732,33.44490298247982],[-96.57233872220033,33.44490998262179],[-96.572484459905,33.44491056281077],[-96.57278799780872,33.44491897856993],[-96.57327999816748,33.44492997910668],[-96.57394389513819,33.444941387477314],[-96.57457923985476,33.44494901885611],[-96.57457696719189,33.44498661751716],[-96.57476596747767,33.44499461720892],[-96.57478442950213,33.4449951628171],[-96.57489774650661,33.44499939100604],[-96.57489779373078,33.4449985127635],[-96.57531036763736,33.4450107049656],[-96.57531027122135,33.44501369263695],[-96.57547931798618,33.44501750530739],[-96.57547928453573,33.445018794677225],[-96.57553528452324,33.445019794227015],[-96.57554241602786,33.4450198578996],[-96.5755424140602,33.44501992157218],[-96.5756054137182,33.44502092221978],[-96.57560542552423,33.445020419974824],[-96.57561053294872,33.44502046553366],[-96.57569116296119,33.445022284044626],[-96.57569116099351,33.44502238668922],[-96.57569973742636,33.44502247780689],[-96.57570927146031,33.44502269297631],[-96.57570927539567,33.445022579353676],[-96.57571378727097,33.445022627108116],[-96.57594003496003,33.445029313278376],[-96.57730078218525,33.445083743457765],[-96.57730105044473,33.44507904650686],[-96.5774472190699,33.445086150391234],[-96.57775638124035,33.44510371908439],[-96.57815838152548,33.445120719115515],[-96.57816062008203,33.445120813526586],[-96.5791772612233,33.44516377056496],[-96.57925084893233,33.44516726377467],[-96.57950984920252,33.44517926386121],[-96.5812017637467,33.44518000048715],[-96.58128861095152,33.44518332079286],[-96.58189861072177,33.44520532076855],[-96.5831430349933,33.445227750534194],[-96.58314285199967,33.44523449873033],[-96.5840928519752,33.44525249831124],[-96.5875756320839,33.4452239900094],[-96.5876725216383,33.445220566510194],[-96.58970487714662,33.44520642845196],[-96.59064493512389,33.445217472351935],[-96.59212327445218,33.445235295186535],[-96.59404294129975,33.445258813424026],[-96.59414180639834,33.44526043378152],[-96.59597345199593,33.445282322879095],[-96.5970172358812,33.44529511173722],[-96.59796853976836,33.445307003141245],[-96.59797469202746,33.445307079987465],[-96.59901688012954,33.4453200077177],[-96.60067432234597,33.44534091208582],[-96.60070099809546,33.44534124307348],[-96.60738657936383,33.44542278679577],[-96.60772278392695,33.44542728120198],[-96.6077746242527,33.445427953606426],[-96.60880962444351,33.44544095434056],[-96.60884570173694,33.445441397304144],[-96.60919505232663,33.44544558926558],[-96.6102942498327,33.445463937947906],[-96.61116782668168,33.44547872755233],[-96.61629616425894,33.445566596816526],[-96.61640764345638,33.44556840983847],[-96.6176314865191,33.44558725308113],[-96.61958668036742,33.44562192609671],[-96.62079700026615,33.445615850853926],[-96.62079700026615,33.445630018003946],[-96.62083999983491,33.445630018003946],[-96.6211879186142,33.44562907553991],[-96.62155691839135,33.44562707589142],[-96.62170769596372,33.445626081281745],[-96.62216162971116,33.44562255513794],[-96.62361815409936,33.4456140103869],[-96.62468870359122,33.445608279854305],[-96.62474912756463,33.44560801967496],[-96.62539237970508,33.44562224665524],[-96.62563136283285,33.44562856890375],[-96.62598131028349,33.44563319614414],[-96.62598122501764,33.445635930771864],[-96.6283526769132,33.44568735516614],[-96.63552214319897,33.44584875748284],[-96.63552234455756,33.44584876187405],[-96.63792134519376,33.44590276171459],[-96.63793118946423,33.445902982921936],[-96.63909419009498,33.44592898274351],[-96.63910998657776,33.44592933349163],[-96.64520675532812,33.44606412999939],[-96.6512707308321,33.44619992770365],[-96.65130261763689,33.44620063414],[-96.65183231468437,33.44621223297948],[-96.6518851729532,33.44621342080252],[-96.6523459981491,33.446224026130125],[-96.65247330793565,33.44622682937054],[-96.65489149994727,33.44627768071157],[-96.65515357109989,33.44628796877405],[-96.66042957076648,33.44640596889319],[-96.66044167130256,33.44640623840387],[-96.66385634826412,33.44648196486711],[-96.66583932435033,33.446526693759814],[-96.66589299264474,33.446527882131754],[-96.66699799216406,33.44655188230484],[-96.66701612558704,33.44655227367167],[-96.66778151122098,33.446568681437974],[-96.67408824778585,33.44670931551414],[-96.67456872610454,33.44672053231812],[-96.67469337690832,33.44672332073819],[-96.67514072813205,33.446732894679705],[-96.67528199265898,33.44673621114311],[-96.6754923815556,33.446741173213475],[-96.67560534700242,33.4467437376817],[-96.677638068498,33.446788098261436],[-96.67954121344718,33.44683137421163],[-96.67954121279129,33.44683137476053],[-96.6813852134107,33.446873374514524],[-96.68141535816858,33.446874053505795],[-96.68616287812169,33.4469799530894],[-96.6861628774658,33.4469799536383],[-96.69248517111316,33.44712142314268],[-96.69345645869228,33.44714387486438],[-96.693539660454,33.447145744423196],[-96.6946152091483,33.44716921106394],[-96.6958744427864,33.44719765185088],[-96.69623449424043,33.44720477330009],[-96.69879993578586,33.447248316565364],[-96.70167742673463,33.447320711744865],[-96.70173604635146,33.44732215974725],[-96.70201745907858,33.44732898259401],[-96.70356131275159,33.447368742280624],[-96.70383002283455,33.44737509910993],[-96.70454365144091,33.447390487017074],[-96.70672934118535,33.44743953796089],[-96.70745860426936,33.4474562229225],[-96.70752075454831,33.44745761438803],[-96.70927657519209,33.447496085253704],[-96.71101931408663,33.44753555841369],[-96.71105553108487,33.44753636859244],[-96.71462921377343,33.44761529515195],[-96.71549940360045,33.44763467686706],[-96.71580626031346,33.44764928862736],[-96.71595387911398,33.447656814617055],[-96.7170099727646,33.44770193048537],[-96.71703897299238,33.44770293003516],[-96.71820466736816,33.4477325070484],[-96.71950072601561,33.4477536128634],[-96.72348898898184,33.44782539327312],[-96.72357183853,33.44782813997668],[-96.72488283772228,33.447851140599965],[-96.72495295248761,33.44785175536975],[-96.7249888317019,33.44785240801374],[-96.7249888408844,33.44785206989036],[-96.72503531208508,33.44785247827314],[-96.72528036023844,33.44785753146117],[-96.72539169448393,33.447859114493355],[-96.72560954151896,33.44786288819178],[-96.72571387674986,33.44786561403707],[-96.72588087647837,33.44786961388295],[-96.72603338166806,33.44787251427895],[-96.72625021994249,33.44787744286632],[-96.72660869332238,33.447884589016105],[-96.72664693571252,33.4478852444046],[-96.72676410148635,33.447887803932716],[-96.72687110029125,33.44788980413011],[-96.72687990890958,33.447889953431336],[-96.72703251838597,33.44789354434553],[-96.72771551818678,33.44790854363036],[-96.72771552933693,33.44790819562675],[-96.72783216252714,33.44791140889666],[-96.72826168859672,33.44792025499467],[-96.72983438114828,33.44795297776291],[-96.73025538194453,33.44796183044774],[-96.73035625407007,33.44796387236165],[-96.73059545757728,33.44796852594932],[-96.73142374579733,33.447985111559746],[-96.73385896933479,33.448034056016645],[-96.73389255620947,33.44803472238318],[-96.73626722787476,33.44808120666316],[-96.73933280217348,33.448143688679956],[-96.74003719189692,33.4481219444924],[-96.74079499936435,33.44814041118857],[-96.74079499936435,33.448143018471114],[-96.74086500000465,33.448143018471114],[-96.74089898041402,33.448142945467204],[-96.74112985410345,33.44814857115959],[-96.74344081512471,33.448206122393415],[-96.74349967151824,33.44820756161338],[-96.74398901289422,33.44821929877607],[-96.74405297408867,33.44822093834511],[-96.7441633264651,33.44822367242393],[-96.7445523689644,33.44823297575696],[-96.74619520579643,33.448275907545856],[-96.74685496737334,33.44829326930312],[-96.74791046285122,33.44832171722579],[-96.74803119995242,33.44832485749178],[-96.74837913906433,33.44833358008693],[-96.74883881251533,33.44835030950957],[-96.74963281271305,33.448367309540686],[-96.74970701695979,33.44836885579647],[-96.75010201691855,33.44837685603713],[-96.75014355647359,33.44837768378072],[-96.7502357682122,33.44837949186256],[-96.75198911352274,33.4484171876792],[-96.75204105092038,33.44841828328677],[-96.75220166161307,33.448421606336986],[-96.75228813692759,33.44842374430868],[-96.75255287755724,33.44843151346177],[-96.75288481358065,33.44844157153449],[-96.7543363846788,33.448469128040976],[-96.75539093829696,33.4484772199482],[-96.75540925143412,33.448477615157344],[-96.7580521406081,33.4485402195792],[-96.75830171178693,33.448546392526474],[-96.75835694700534,33.448547735139755],[-96.7587213745652,33.448556434681045],[-96.759822128501,33.44858313819446],[-96.7598257509879,33.4484785675016],[-96.76014799884294,33.448517067459065],[-96.76014481252368,33.448612464908564],[-96.76031581318827,33.448616464754444],[-96.76079055377109,33.44861523521489],[-96.76100801973335,33.448619816896446],[-96.76107357015209,33.448627648624324],[-96.76122656988372,33.448628648174115],[-96.76122660989309,33.448624422180785],[-96.762809786209,33.44865777673475],[-96.76307737012684,33.44866285572115],[-96.7637283703096,33.448673855709],[-96.7643332305167,33.44868122581064],[-96.76500223032065,33.448686225206316],[-96.76505383452557,33.44868603857977],[-96.76629616519251,33.44870902877394],[-96.76636910816056,33.44871033735532],[-96.76656126590642,33.44871367467699],[-96.7679112820963,33.448791544052035],[-96.76842381316025,33.448821409787506],[-96.77041992740236,33.44890654003277],[-96.7743619251177,33.44901318776924],[-96.77694023393597,33.449083895076356],[-96.7769559235085,33.449084323219594],[-96.77796420990812,33.44911172768034],[-96.77801587445504,33.449113305223506],[-96.78334787410915,33.4492613061079],[-96.7833715694892,33.44926195930079],[-96.78602898796423,33.4493347392603],[-96.7860785044676,33.44933638980738],[-96.78652098307587,33.449349611748865],[-96.78674798372798,33.449355611243234],[-96.7867553749655,33.449355708947714],[-96.7869150864314,33.44936030050951],[-96.79018808631048,33.449449300510985],[-96.79022174008607,33.44945020674751],[-96.79068756645206,33.44946262893937],[-96.79220618143313,33.44950593507915],[-96.79220618208902,33.44950593453025],[-96.79273205069978,33.44952093216837],[-96.79315290064105,33.44953155286522],[-96.79555816962909,33.44958436049151],[-96.8027906414759,33.449745126631264],[-96.80279064082,33.449745127180165],[-96.80480955515071,33.44979005861755],[-96.80481945386015,33.44979028037379],[-96.80497591407355,33.4497946024249],[-96.80597025097993,33.449820293763786],[-96.80905526654863,33.44990489541683],[-96.80906938132645,33.44990528129464],[-96.80998838126204,33.44993028101752],[-96.81050736367148,33.44993938345257],[-96.81092454062224,33.44995332500404],[-96.81335453998659,33.450005325196095],[-96.81337251074856,33.4500057072316],[-96.81419779301942,33.45002313650376],[-96.81463646549126,33.45003406733001],[-96.81528262257368,33.45005099710172],[-96.81534267334501,33.4500525422597],[-96.82044867389281,33.45018154236668],[-96.82280197793578,33.45019784584168],[-96.82396618868574,33.45018457175455],[-96.82497486730828,33.45023078487715],[-96.82502438840288,33.45022994286211],[-96.82566229634213,33.45025963404687],[-96.82680914696478,33.45022235484654],[-96.83128131462513,33.45041225064473],[-96.83762990885225,33.45036751406741],[-96.8377359087349,33.45036151402414],[-96.84891207771106,33.448724050014825],[-96.85942819717408,33.445159064282734],[-96.86881533576918,33.439825525314895],[-96.87665490572374,33.432961265034194],[-96.88259732754202,33.424872371825025],[-96.88637761857055,33.41591954264417],[-96.88782720887738,33.40650200020428],[-96.88802218367577,33.39919593123005],[-96.88802220859964,33.39919500084185],[-96.88817414644348,33.39352268091097],[-96.88834212017036,33.38766842425495],[-96.88834544553856,33.38754552299353],[-96.88835144563092,33.387309523304154],[-96.88835291351535,33.38724993070532],[-96.88844574507112,33.38335591579582],[-96.888643965219,33.376443842344386],[-96.88876988254862,33.37208867984056],[-96.88884985994937,33.369324470169886],[-96.88885013870312,33.36931479303487],[-96.88885813926352,33.369035792943905],[-96.8887420491512,33.367966101211515],[-96.88901228942825,33.357805981099],[-96.88901229795484,33.3578056709696],[-96.88905213940765,33.35631660470054],[-96.88905401984762,33.356243676537595],[-96.88907101923479,33.355558676994974],[-96.88907102120245,33.35555860783337],[-96.88907963698878,33.35521139629082],[-96.88908209002173,33.355123100530086],[-96.88908277870745,33.35509800145602],[-96.88909524982202,33.35463800929954],[-96.88916623757851,33.35266604136837],[-96.88916658585671,33.352656331299265],[-96.88931632712105,33.348466578093735],[-96.88933618816135,33.347915420519016],[-96.88933667876795,33.347901729815575],[-96.8894536786013,33.344621729946276],[-96.88945373697563,33.34462009586625],[-96.88951140751792,33.34300137739511],[-96.88958959040046,33.34083676037538],[-96.8897055676995,33.33997258618041],[-96.88971256802589,33.33977258620177],[-96.88973052239058,33.33907444156389],[-96.8897495222458,33.337918441643424],[-96.88975211498357,33.33760293300996],[-96.88977712214594,33.33663217090879],[-96.889782171852,33.336410851043524],[-96.889811616774,33.33492941944667],[-96.88989065493861,33.33197020535071],[-96.88993695036046,33.33041447443473],[-96.88993733274502,33.3304015423133],[-96.88994094473766,33.330278746989876],[-96.88999083641076,33.32862155161514],[-96.89003608896567,33.327179369775315],[-96.890040028248,33.327046314383395],[-96.89007802795842,33.32568131414492],[-96.89008061676086,33.32558378146825],[-96.89012961707786,33.32364278146694],[-96.89013484321866,33.323406306977695],[-96.89014684340337,33.32277330652932],[-96.89001331708037,33.31994441209977],[-96.8901869957486,33.31339706838511],[-96.89022658271564,33.311947207412054],[-96.89022836411604,33.31187975673807],[-96.89025220641571,33.31094512773072],[-96.89025592990986,33.3108118308221],[-96.89025590170652,33.310811830273195],[-96.89026113506212,33.31062803277166],[-96.89026513534232,33.31046603325004],[-96.89026483232061,33.310466027761024],[-96.8902807245635,33.30988100186045],[-96.89028609040909,33.30965946517905],[-96.89028728478691,33.309603315290985],[-96.89030052985305,33.309119131394766],[-96.89030161797649,33.309078563725016],[-96.89031861867544,33.30843156354161],[-96.89032174399684,33.30830444616708],[-96.8903230006843,33.308249573573015],[-96.89032994722761,33.30799177206142],[-96.8903307716828,33.307960690508935],[-96.89034129086528,33.30755796251075],[-96.89048593519938,33.30523284831305],[-96.89054978423644,33.30370971062454],[-96.89056078418714,33.30320171098617],[-96.89056932848132,33.30224308619695],[-96.89056560367541,33.3012691174127],[-96.89056560367541,33.29919088487838],[-96.89056571452102,33.29918338084475],[-96.8905687139113,33.29894138056321],[-96.89056560367541,33.298941353667026],[-96.89056560367541,33.29889200027844],[-96.89053754924268,33.29889200027844],[-96.89077256947606,33.29746102042225],[-96.89077456928821,33.29598602030531],[-96.89075494108926,33.29471861037818],[-96.89071884739855,33.29360239813831],[-96.89073667517626,33.29263780569101],[-96.89075019965205,33.2921111735882],[-96.89073665943486,33.292110929875896],[-96.89081460422892,33.290662999938625],[-96.89081460422892,33.29065099985208],[-96.89080461631828,33.29007791475668],[-96.8908210404889,33.28946629841642],[-96.89082157897555,33.28944604614338],[-96.89088091351373,33.287191328574494],[-96.89088263129268,33.28713705153865],[-96.89092163123713,33.28565205098366],[-96.89092205363104,33.28561989029065],[-96.89092429415525,33.28553398828974],[-96.89093876573789,33.28500048833025],[-96.89093914943422,33.28498625037192],[-96.89098803103494,33.28315865728125],[-96.89101086522989,33.28231380442222],[-96.89101111774798,33.28230442973198],[-96.89104311736605,33.2811094287069],[-96.89104379358984,33.28108383068128],[-96.89106579349124,33.280240830914025],[-96.89106621588515,33.28022451755879],[-96.89109591070167,33.27906743136208],[-96.89110529519243,33.278710795179244],[-96.89110561461142,33.278700474182656],[-96.89110558771989,33.278699674981944],[-96.89110757900546,33.278624014935794],[-96.89110306975371,33.27862393205165],[-96.89109838931437,33.27848318599956],[-96.89114273608358,33.27818652609777],[-96.8912078431199,33.27613102961617],[-96.89130311983793,33.275726531959265],[-96.89132311992716,33.27552053248625],[-96.8912728242251,33.271647963710734],[-96.891285546546,33.2712985807135],[-96.89129139578338,33.27114482624265],[-96.89130170508069,33.27084167393286],[-96.89132667616906,33.27000864331625],[-96.89150145673443,33.26418295863465],[-96.89150162529846,33.2641782419233],[-96.89150953796945,33.26393453675342],[-96.8915375379632,33.262976536614204],[-96.89154518171883,33.26267314114101],[-96.89158933565604,33.26058645662001],[-96.89169743176686,33.25757167172716],[-96.89171174331203,33.25698964776938],[-96.89171243790078,33.25698965984522],[-96.89186519757624,33.25071979686192],[-96.89186720197964,33.250695858714714],[-96.89195706169255,33.249320874505244],[-96.89198306121826,33.24876787426789],[-96.89200402022038,33.24824454161253],[-96.89204401974297,33.24703554195022],[-96.8920491383176,33.24686979343074],[-96.89205648757809,33.24661351018094],[-96.89216480472423,33.24298935121083],[-96.8921796580355,33.24224768142144],[-96.89218848829823,33.24137938936675],[-96.89219999984404,33.24033593567923],[-96.89224834623757,33.23815670195908],[-96.89224841707382,33.2381534974716],[-96.892272310533,33.23707233150039],[-96.8923692512469,33.23272498261069],[-96.89215393004874,33.23016906297936],[-96.89222999702639,33.22815938550901],[-96.89224695837187,33.22772216453497],[-96.89225758905584,33.22745155934491],[-96.8922596413393,33.22739835211826],[-96.89229164095735,33.2265533527025],[-96.8922917045788,33.22655166922133],[-96.89232370419687,33.22570566860908],[-96.8923244584717,33.225685589788945],[-96.89234638950452,33.2250974664367],[-96.89237229195834,33.224405066602856],[-96.89237238312721,33.22440262289298],[-96.89240767335124,33.223457620194495],[-96.89250494397842,33.220921641608996],[-96.89250714121381,33.22083213881367],[-96.89251694941026,33.220715731606944],[-96.89261194999813,33.218323731554996],[-96.89261245896967,33.21831086255724],[-96.89270045857525,33.216075862631236],[-96.89270380034073,33.2159883968097],[-96.89270680104279,33.215907396499986],[-96.892709421328,33.215829577623886],[-96.89271841818707,33.2156020348613],[-96.89272998679542,33.21527947119571],[-96.89273419105777,33.215183648347484],[-96.89288319116508,33.21141664871681],[-96.89288949231148,33.21124775224672],[-96.89299800884854,33.208152528021586],[-96.89301268244564,33.20808450978336],[-96.89301374630111,33.20808453942404],[-96.89301398373371,33.2080784795505],[-96.89301418312462,33.20807755520023],[-96.8930160563498,33.20802558245325],[-96.89303442064646,33.20755683751204],[-96.893051080282,33.20713644915412],[-96.89305930909254,33.20691187210682],[-96.89306503961363,33.206741579779994],[-96.89310733016406,33.20555550169914],[-96.89318790704934,33.203332196121494],[-96.89318880627613,33.20330716785573],[-96.89323480589107,33.20201416813652],[-96.89323578382479,33.20198639206941],[-96.89326803005794,33.20106076065691],[-96.89328913663557,33.200498206787394],[-96.89328971775514,33.200482632802604],[-96.89339071777947,33.19776063256633],[-96.89341306792674,33.196880863528314],[-96.8935000377832,33.190537008061895],[-96.89350070875984,33.1904991195808],[-96.89350089700062,33.19048497548465],[-96.89350319786682,33.190423581939704],[-96.89350379538367,33.19040753095943],[-96.89372942194379,33.18431761054181],[-96.89374311498361,33.18395280011651],[-96.89376293535867,33.18324945847838],[-96.8937718541667,33.18277577781407],[-96.89384966056771,33.178693933171964],[-96.89390182096835,33.176009109491424],[-96.89390208463661,33.17599671858695],[-96.89390211218404,33.17599410526648],[-96.89390250309516,33.17597399735457],[-96.89390232666044,33.17597399461006],[-96.89391060400692,33.1751960001602],[-96.89391060400692,33.17499899992874],[-96.89390864420413,33.174614932388984],[-96.8939076439701,33.17451693259705],[-96.89390508468279,33.17432645002307],[-96.89390364762525,33.17418828545515],[-96.89386877848334,33.171406738178874],[-96.89385590727515,33.17033154315916],[-96.89385563442443,33.17030928684642],[-96.89384575473584,33.16952282668735],[-96.89382887800032,33.16812207154827],[-96.8938455500978,33.16723784872275],[-96.89397395522259,33.16077381454679],[-96.89400276852139,33.159369359810995],[-96.8940043931638,33.159305603244704],[-96.89400519728636,33.15927350128416],[-96.89405619741554,33.15720250162608],[-96.89405631482005,33.157197722888846],[-96.89409991387335,33.155418080743196],[-96.89410650426775,33.15515824280671],[-96.89410659609251,33.155154599197964],[-96.89412559660362,33.15440259908066],[-96.89412821229757,33.15429273917209],[-96.89414006753036,33.15376219998777],[-96.89414142063382,33.15370265349667],[-96.89415040109563,33.15348222394978],[-96.89415022072556,33.153482218460766],[-96.8941594071372,33.153277973277234],[-96.89436440723202,33.14778597355632],[-96.89437170336532,33.14646618908626],[-96.89448365086905,33.14394138778382],[-96.89451099562753,33.14312432855676],[-96.89451899618794,33.142770328748256],[-96.8945195779634,33.142744192799086],[-96.8947455777256,33.132427192221165],[-96.8947464382548,33.13238691821376],[-96.89474974460215,33.132228235155544],[-96.8947648681406,33.131559411193855],[-96.89476628945674,33.13150789568191],[-96.89476653541593,33.13149893321676],[-96.89482153582532,33.12948793289358],[-96.89482351333717,33.12941289420403],[-96.89484804497845,33.12844533274803],[-96.89487355192989,33.12747708681175],[-96.89487541728437,33.127403556503765],[-96.89488095759702,33.12717637930964],[-96.8948973909501,33.12652872758005],[-96.89490723850004,33.12614465125787],[-96.89490780322232,33.12612236640225],[-96.89492080298518,33.12560336622713],[-96.89492135983677,33.125580857968565],[-96.8949313031468,33.12517417129212],[-96.89494130351937,33.12476617109417],[-96.89494168262446,33.12475056417529],[-96.89495061520623,33.1243798530579],[-96.89496045291777,33.12400780591405],[-96.89496149578473,33.1239675516671],[-96.8949732690311,33.123503527828454],[-96.89499978343137,33.12247731294424],[-96.89500546541652,33.12226231862088],[-96.89500761018063,33.122099982622586],[-96.8950088216116,33.12210000238304],[-96.89501260938307,33.12193389927314],[-96.89501433765629,33.12187686510462],[-96.89501954871157,33.12168946186854],[-96.8950275486161,33.121373461968155],[-96.89502831469697,33.12134272238136],[-96.89503931464768,33.12089372197921],[-96.8950404257273,33.12084718390687],[-96.89504077662907,33.120832089662066],[-96.89504386653235,33.12071776773248],[-96.89504784320046,33.120558077439846],[-96.89505368981429,33.12030141764356],[-96.89505502717637,33.120259671482096],[-96.89505902745658,33.12012067148596],[-96.8950597004009,33.1200973365816],[-96.8950771215261,33.11956948152605],[-96.8950788884969,33.11951473408154],[-96.89508888886945,33.11919773463136],[-96.89509820317987,33.11885214564191],[-96.89510694489728,33.11846113285034],[-96.89510724857489,33.118450271185694],[-96.89510824815302,33.11841127117888],[-96.89510850132702,33.118391502488144],[-96.89510920247467,33.11836014593596],[-96.8951089033883,33.11836014099585],[-96.89511043161471,33.11824087016954],[-96.89511173683812,33.118240890478894],[-96.89512873688118,33.11745789059544],[-96.89512370488418,33.11745781374922],[-96.89514221872405,33.11633779652353],[-96.89514160415402,33.11620191922854],[-96.89514160415402,33.116189999830524],[-96.89514152675886,33.11618485332922],[-96.89514121914591,33.11611679666789],[-96.89514050619222,33.116116799412396],[-96.895131666747,33.11552741029309],[-96.89513416634823,33.115527386141416],[-96.8951331661142,33.11545338597367],[-96.89513131978059,33.11533139753559],[-96.89512089504643,33.114709378961315],[-96.89511986005017,33.1146213697272],[-96.89511763395558,33.11433864369226],[-96.89511523011446,33.11397254938613],[-96.8951144325508,33.11370835975785],[-96.8951128971096,33.113463539768844],[-96.89511282889691,33.113456407890496],[-96.89511125213456,33.113091409740846],[-96.89510106155355,33.11309144047934],[-96.89510122159099,33.113027000530565],[-96.89511060411408,33.113027000530565],[-96.89511060411408,33.112980000283095],[-96.8951099193637,33.11275297074349],[-96.89510422163718,33.11180856140763],[-96.89510497591202,33.111808568543346],[-96.89510660580156,33.11169121283468],[-96.8951066982822,33.11169121338358],[-96.89510678945108,33.11167810341802],[-96.89510985770994,33.111469473608594],[-96.89511606703158,33.1111075344875],[-96.89511728305379,33.111032256476854],[-96.8951176018169,33.111011203905306],[-96.89512069172018,33.11087160615534],[-96.89512369111047,33.11066360593603],[-96.89512493599189,33.11056907135984],[-96.89512537543897,33.11053218791755],[-96.89512985583151,33.11029560364799],[-96.89513225770494,33.11015491358386],[-96.89513656756579,33.10987133730035],[-96.89514376269184,33.10946302258179],[-96.895144322167,33.10943050016263],[-96.89514732155729,33.109251500609886],[-96.89514946763317,33.10910680740647],[-96.89515036882763,33.10903699755346],[-96.89515147400424,33.10897364003862],[-96.89515503090202,33.10878334573788],[-96.89515898002271,33.108516127270626],[-96.8951606512334,33.108412541856126],[-96.89516360274364,33.10823150313398],[-96.8951637234276,33.10822404301248],[-96.89517446233363,33.10755729005649],[-96.8951762011011,33.10745469431155],[-96.89517694750523,33.10740318648423],[-96.89517771293022,33.10736798926762],[-96.89518241239041,33.107111654421075],[-96.89518641267061,33.106843654866864],[-96.89518789236108,33.10673219491016],[-96.89522938600373,33.104240632892356],[-96.89522974871154,33.104218453974745],[-96.89524569736108,33.10322564798576],[-96.89527269843258,33.10155364818626],[-96.89527303949599,33.101529836286424],[-96.89527470808311,33.10145111666281],[-96.89527670855115,33.10133811593935],[-96.89527681546141,33.10133205990812],[-96.89527881527357,33.10121805963486],[-96.89528021100996,33.10113301556714],[-96.89529560018433,33.100125977108846],[-96.89530689725372,33.099477345589925],[-96.89530778795393,33.09937508851726],[-96.89531753121715,33.09877291932226],[-96.89532026890687,33.098608662168395],[-96.89533471950097,33.09775320343286],[-96.89533815243531,33.09756783826839],[-96.89534094325222,33.097395942051115],[-96.8953436310942,33.09720328637574],[-96.89534418335457,33.09716686401079],[-96.8953446332959,33.097137609751684],[-96.89535267517745,33.09679574780402],[-96.8953576750358,33.09644974823618],[-96.89535908913714,33.09634105145008],[-96.89536203736792,33.096086021891516],[-96.89538904171889,33.09443965140502],[-96.89541598966322,33.09333999019477],[-96.89546355489037,33.091452232549806],[-96.89547843181373,33.09086738284664],[-96.89548035029539,33.09079768881186],[-96.8954803561984,33.09079745772429],[-96.89548335624458,33.090688457395615],[-96.8954851960193,33.09061932324045],[-96.89551519582521,33.08945132323345],[-96.89551584712514,33.089425624209944],[-96.89552674016558,33.08898991436197],[-96.89556202383069,33.08759620053247],[-96.89556684922198,33.08743571543033],[-96.89557184908031,33.08724371514345],[-96.895571917293,33.08724111005651],[-96.89557391710515,33.08716411014158],[-96.89557696109604,33.08701608510551],[-96.89557959384317,33.08690725658303],[-96.89558601501766,33.086584685232815],[-96.8955864282291,33.0865582210405],[-96.89559077219627,33.08631151557453],[-96.89559134085391,33.08627518597395],[-96.89559241585953,33.086226541217314],[-96.89559401951341,33.08615051724941],[-96.89559901937176,33.0859015173748],[-96.89559928500768,33.08588815656122],[-96.89563216089634,33.084221398222994],[-96.89567200694039,33.0833616712287],[-96.8957349167413,33.082009595975954],[-96.89577165582891,33.08080510224679],[-96.8957725616146,33.080742597176126],[-96.89577353364531,33.08067649460444],[-96.89577544819163,33.08051710675658],[-96.89578029260375,33.08041249873842],[-96.89578029457142,33.080412455375196],[-96.89580590187421,33.07985952759285],[-96.8958124791508,33.079722219860315],[-96.89582257265991,33.079497461126586],[-96.89582736656843,33.07938309583378],[-96.89583602302,33.079189507025696],[-96.895823144597,33.079189103583026],[-96.89585832725489,33.07860371924971],[-96.8958593274889,33.07856971918748],[-96.89586214585324,33.07846937448796],[-96.89587514627199,33.07798337482529],[-96.89587520399041,33.07798120776181],[-96.89588820309737,33.077494208000445],[-96.89588831787833,33.077489903514184],[-96.89590431768735,33.076887903380864],[-96.89591002656404,33.07664312620618],[-96.8959160273123,33.07634412578801],[-96.8959192857796,33.076159069655134],[-96.89592116556366,33.07603500362453],[-96.89592240650975,33.07595492492059],[-96.89593962889991,33.07498858916184],[-96.89594071112033,33.074924840280175],[-96.89594271093249,33.07480084011777],[-96.89594540664517,33.07413763526165],[-96.89596150746144,33.07371566222485],[-96.89597422912644,33.073715762673835],[-96.8959762289386,33.07353776267089],[-96.89597710127384,33.073451321099725],[-96.89598610141239,33.072444321064545],[-96.89598760405904,33.07210799972952],[-96.89598760405904,33.072085000204034],[-96.89598671335884,33.07196026890471],[-96.89599560527535,33.0719603704515],[-96.89599860466562,33.07177637095418],[-96.89600016634249,33.07167161418369],[-96.89600216681053,33.0715236138482],[-96.89600221534648,33.071520036656544],[-96.89600400724115,33.07138651085596],[-96.8960147946831,33.07062846074534],[-96.89601555026972,33.07057238331228],[-96.89601955054992,33.070258383060384],[-96.89601983979793,33.070235143116],[-96.89602384007813,33.06990514293168],[-96.89602406308113,33.06988636555722],[-96.8960260622374,33.06971436559754],[-96.89602829029967,33.06943063123037],[-96.89602849887306,33.06937952684571],[-96.89603138217062,33.06928528373626],[-96.89603238240464,33.06923028379702],[-96.89603614721992,33.06897600952704],[-96.89603780859223,33.06883063129444],[-96.8960449217319,33.06828382156921],[-96.89604834941912,33.06805587536395],[-96.89604915682114,33.0679993505761],[-96.89605610861157,33.06748579385805],[-96.89607274594682,33.066543015857704],[-96.89607679673064,33.06624784512592],[-96.89607966428682,33.06595532558882],[-96.89608340876946,33.06559956764852],[-96.89609030349737,33.06497614388618],[-96.896091541164,33.06484290900343],[-96.89609551979979,33.06431371023679],[-96.89609847918072,33.063930960060844],[-96.89609960403406,33.06363999995315],[-96.89609960403406,33.06351501121898],[-96.89610060426809,33.06343699967842],[-96.89610060426809,33.063311999966224],[-96.89609811253756,33.063295786511084],[-96.89610060426809,33.06321699992148],[-96.89610060426809,33.06294199967639],[-96.8961004848959,33.062847189002696],[-96.89609960403406,33.06249756887997],[-96.89609960403406,33.06189000014003],[-96.89609957255128,33.061841338916345],[-96.89609857953207,33.061073517259636],[-96.89609842736532,33.06092452011886],[-96.89612182103544,33.06037773948541],[-96.89614447026908,33.05985385792846],[-96.89614479034397,33.059846436778976],[-96.89619979009746,33.058568436893495],[-96.89619947330202,33.05856842701326],[-96.89620804973487,33.05837276884619],[-96.89620830815599,33.05837277653082],[-96.89623184874573,33.0578134353823],[-96.89623785408521,33.05768159251399],[-96.89624175991709,33.05758655843734],[-96.89625651746826,33.0572497469332],[-96.89625864517919,33.05720045392379],[-96.89627659036142,33.05677825254393],[-96.8963074834911,33.056073523282585],[-96.89631353080762,33.05592926096691],[-96.89632153005624,33.05572926098827],[-96.89631735268543,33.05572914352333],[-96.89634785818343,33.054802600934195],[-96.89634919554551,33.054718400528216],[-96.89635311318342,33.05450190989913],[-96.89636298303365,33.05414792710658],[-96.89636315290946,33.054141831554425],[-96.896373593385,33.053765173637224],[-96.89637609036265,33.05368873909093],[-96.89638009064285,33.053553740038474],[-96.89638096953702,33.053523677796235],[-96.89639997004812,33.052864677526294],[-96.89640089157521,33.052832229208846],[-96.89640889082384,33.05254622842701],[-96.89641366243204,33.05235895692732],[-96.89642359065658,33.05192709487949],[-96.89642714689846,33.05177347434063],[-96.89642758109842,33.05175696228302],[-96.8964333490053,33.05150590347855],[-96.89644634942405,33.05084390291252],[-96.8964289473197,33.05084366304252],[-96.89646128472172,33.050471131767466],[-96.8964672848141,33.05007513165606],[-96.89646745337812,33.050063904422956],[-96.89647211020538,33.04975038061764],[-96.89647392899157,33.049672384446325],[-96.89648441800306,33.04958632710627],[-96.89647747277152,33.04951067694034],[-96.89648806082258,33.04901383208007],[-96.89648946442966,33.04894498719605],[-96.89649456660702,33.0486830892319],[-96.89649753844988,33.04854756597843],[-96.89650241237712,33.04834775482193],[-96.89650637592742,33.04816757567968],[-96.89650833900966,33.048067436269356],[-96.89650979443215,33.048009520564875],[-96.89651879129124,33.047677520183164],[-96.89652103837436,33.04759091943053],[-96.89652703912262,33.047348919697896],[-96.89653791314221,33.046187881958645],[-96.89653753731658,33.046125873643916],[-96.89657914705197,33.04436108587308],[-96.89658073234091,33.04429109927375],[-96.89660062092865,33.04337529210189],[-96.89660707555358,33.043158693339194],[-96.89660907602163,33.04305869334987],[-96.89660904716241,33.04305869280097],[-96.89661219871945,33.042899796768936],[-96.89661619899967,33.04266379707956],[-96.89625463965186,33.04265950466914],[-96.89625995368206,33.04184068072347],[-96.89662441403648,33.041841491451116],[-96.89662523193276,33.04158397591725],[-96.89662987236274,33.04083959839632],[-96.8966298894159,33.04083686541531],[-96.89663289011798,33.04034986565394],[-96.89663298128686,33.04029135494014],[-96.8966719149863,33.039269324881644],[-96.89667339861211,33.039183999227404],[-96.89675183532454,33.035048677299066],[-96.89675315169809,33.03497554165132],[-96.89679290394972,33.032640384750145],[-96.89679297675363,33.03263769568126],[-96.89696899760919,33.030124996012155],[-96.89696980435532,33.03012500314788],[-96.89696997423114,33.030111052813986],[-96.89697018280452,33.03010807941408],[-96.89697060913379,33.03005901913894],[-96.89697080458934,33.03004300383727],[-96.89697141784758,33.02998959461484],[-96.89698027500185,33.029167851061615],[-96.89698914396216,33.028392329962315],[-96.89698968638416,33.028341938600825],[-96.89699061971729,33.02824951180673],[-96.89699852451758,33.02749760884501],[-96.89700039577507,33.02697670068797],[-96.89699739572889,33.02607570013648],[-96.89699669130178,33.02600491762985],[-96.89699700350597,33.02594965366895],[-96.8969961410091,33.02594965037554],[-96.89699339020156,33.02567325811602],[-96.89699926960994,33.02545383854806],[-96.89700556878867,33.02545384513488],[-96.89700591050797,33.025205989171184],[-96.897046100239,33.02370604861273],[-96.89705070984209,33.023516127565074],[-96.89705371054416,33.023378128216535],[-96.89705589007049,33.02327085637896],[-96.89706988941148,33.022529855700604],[-96.8970731682114,33.02232748117368],[-96.89708308659758,33.021593487224116],[-96.89708600662503,33.02138233411409],[-96.89708919819142,33.020737995554484],[-96.89711094688651,33.020739181181916],[-96.89720194719416,33.01957018107621],[-96.89722163770277,33.0186744922454],[-96.89724762279887,33.01867554613646],[-96.89727362298046,33.0182265462832],[-96.89728998287376,33.017922777008025],[-96.89730298329249,33.017661776497974],[-96.89730283046985,33.01766177100896],[-96.89731046504299,33.017519511635186],[-96.89732746443016,33.0171605113332],[-96.89735791220974,33.016317983621306],[-96.8973620863011,33.0161505658921],[-96.897374169784,33.015845177357235],[-96.89737464661688,33.01583309109314],[-96.89739888704248,33.01521544287332],[-96.89740908287061,33.014962400887406],[-96.89743960411,33.013446999966796],[-96.89743960411,33.01342899983698],[-96.897439284691,33.01340388539367],[-96.89752360343537,33.011103999810814],[-96.89752360343537,33.010754588819594],[-96.8975333545693,33.01015549127788],[-96.89753408588794,33.01013129240241],[-96.89754863420984,33.00968484823496],[-96.89745787067889,33.00863388228029],[-96.89747103769399,33.00841517408879],[-96.89750354956307,33.00841546445773],[-96.89750555003111,33.00825846542958],[-96.89750600259602,33.00822150788558],[-96.89750700217415,33.008136507181085],[-96.89750829821509,33.00800752134555],[-96.89751065483203,33.00772464326485],[-96.89751169835488,33.00764070468493],[-96.89751369816703,33.007434213396095],[-96.89751447408628,33.00732245319023],[-96.89751919650266,33.00677651127841],[-96.8974741177589,33.006776237925415],[-96.89746275969162,33.0059297652578],[-96.89753688851088,33.00593026091593],[-96.89754078319261,33.00552231121693],[-96.89754337461859,33.005265810602104],[-96.89755417189893,33.00463043944777],[-96.89751825136348,33.004372211988546],[-96.89755920979896,33.00412531989604],[-96.89756142802287,33.00364091040127],[-96.8975733973807,33.002964628513695],[-96.89757961063769,33.00263084639742],[-96.8976071383898,33.001947040715756],[-96.89762844239068,33.00126336951499],[-96.89764081774514,33.000702618787194],[-96.89765013992624,33.000307386040205],[-96.89765463278071,32.99992638631143],[-96.8976578099175,32.99982845677891],[-96.89765937749739,32.99977914894915],[-96.89768437678907,32.998976149287394],[-96.89769691152509,32.99845953628529],[-96.89769753593347,32.998423631534536],[-96.89770282438393,32.998178848321935],[-96.89770515804469,32.998062490516354],[-96.89770615762282,32.998008490126914],[-96.89770875757539,32.997850024982625],[-96.89770975846531,32.997780024660756],[-96.89766708159499,32.99777959706642],[-96.89765757051724,32.99756049531247],[-96.89767041352209,32.99756067096098],[-96.89767205259412,32.99747683063445],[-96.89767225788805,32.99747683283005],[-96.89767269799103,32.9974438284753],[-96.8976774131926,32.997202671306596],[-96.89767865872992,32.997135915542025],[-96.897692464583,32.996359321340115],[-96.8977014601303,32.99598974370451],[-96.89770638456116,32.99575813687456],[-96.89774933559399,32.993395880153024],[-96.89778710705428,32.99134424244959],[-96.89780899676596,32.990176502073034],[-96.89781885349836,32.98971951515276],[-96.89782218542547,32.989546615543375]]]]},"properties":null}