{"type":"Feature","geometry":{"type":"MultiPolygon","coordinates":[[[[-96.83880200026373,33.2194789997778],[-96.83880300008865,33.21938600025434],[-96.83880300008865,33.219334999649426],[-96.83880399991354,33.21931499965463],[-96.83881599960912,33.219221999956844],[-96.83891100004367,33.216830000234864],[-96.83899899990722,33.214595000037676],[-96.83900200028026,33.21451399988873],[-96.839004999755,33.21441499993893],[-96.839012000326,33.21425299998435],[-96.83902900004445,33.21377899998155],[-96.8390330002424,33.21369599992619],[-96.83918200020531,33.20992900032477],[-96.83929099998525,33.20681999978453],[-96.83929299963508,33.2067589998184],[-96.8393079997037,33.20672199980594],[-96.83931199990165,33.20661099967464],[-96.83933299981805,33.206075000269365],[-96.8393500004348,33.20564599965121],[-96.83935700010753,33.20543800016629],[-96.83940099959011,33.20420399972945],[-96.83948199978097,33.201969000310136],[-96.83952799981172,33.20067600033804],[-96.83956200014691,33.19970000019315],[-96.83958499971313,33.19908700014273],[-96.83968599999548,33.1963649998118],[-96.83977399985903,33.189946000140495],[-96.83977600040716,33.18983300009422],[-96.83977700023208,33.18972099975149],[-96.83977800005698,33.189633000187186],[-96.8397799997068,33.189521000340505],[-96.83979899997338,33.18901399968606],[-96.8400249999292,33.1829140001839],[-96.84003900017291,33.182541000300105],[-96.84004800039372,33.182063000272336],[-96.84012600021153,33.177970999744275],[-96.84017899991498,33.17524300025005],[-96.8401799997399,33.17519600030538],[-96.8401799997399,33.175164999832134],[-96.8401799997399,33.175104999636936],[-96.8401799997399,33.174999000119065],[-96.84017899991498,33.174900999869116],[-96.84017700026513,33.17478099982813],[-96.84017600044025,33.174660000353484],[-96.84014100028014,33.17186799969009],[-96.84012799986134,33.17078200000339],[-96.8401179998156,33.16998599993256],[-96.84009400042449,33.16799400027095],[-96.84012200001357,33.16650899967017],[-96.84025099988501,33.16001499962972],[-96.84028199984716,33.1585039999272],[-96.8402860000451,33.158346999859056],[-96.84033700009871,33.15627600031566],[-96.84038099958134,33.15447999962417],[-96.84038800015236,33.15420399974507],[-96.84040700041894,33.15345199988585],[-96.8404190001145,33.15291499983792],[-96.8404209997643,33.15282700016638],[-96.84042400013735,33.152728999949716],[-96.84042499996227,33.15270099986765],[-96.84042599978719,33.152584999862384],[-96.84042800033531,33.152520000142474],[-96.8404400000309,33.15222000023249],[-96.84045099990153,33.15195000018836],[-96.84045500009952,33.151873999914606],[-96.84066000013893,33.14638200035754],[-96.84064699972012,33.145887000295346],[-96.84064500007031,33.14582000017721],[-96.84064099987233,33.14569499994349],[-96.84064000004742,33.14565700011389],[-96.84078999983525,33.14227400012761],[-96.84079800023117,33.14192000030044],[-96.84102400018698,33.13160299969755],[-96.84102800038497,33.13141099968865],[-96.8410459999283,33.13061500035996],[-96.84105000012624,33.13047000031559],[-96.84110500037785,33.1284590000092],[-96.84112999959389,33.127473000260984],[-96.84115600043147,33.126486000153804],[-96.84116200027924,33.12624000013996],[-96.84117899999767,33.12557000013653],[-96.84118900004343,33.12517999989144],[-96.84120199956389,33.12466099996923],[-96.84121199960965,33.124252000163885],[-96.84122199965539,33.12384399980651],[-96.84123199970114,33.123429000087185],[-96.8412429995718,33.12301300005347],[-96.84125500016566,33.12253999984893],[-96.84128199992983,33.121494999708275],[-96.84128799977763,33.1212679999409],[-96.84128799977763,33.12125500002596],[-96.84128799977763,33.12124200010909],[-96.84129500034864,33.12093500018158],[-96.8413010001964,33.12073700011245],[-96.84130899969404,33.12042100018693],[-96.84131999956467,33.1199719999943],[-96.84132200011281,33.11988600017801],[-96.84132700013569,33.119701000147856],[-96.84133700018143,33.119261999793835],[-96.84133999965617,33.11917699993615],[-96.84134399985413,33.119037999982794],[-96.84134700022717,33.1189340002256],[-96.84136700031866,33.11832799975551],[-96.84137700036439,33.118011000276134],[-96.84138800023506,33.11751900022812],[-96.84138900005996,33.11748599984188],[-96.84138999988488,33.11744699991651],[-96.84138999988488,33.11742400022257],[-96.84140699960332,33.11664100034179],[-96.84141199962619,33.11650799972811],[-96.84141099980128,33.1162870002204],[-96.84141099980128,33.11626899989558],[-96.84141099980128,33.11622100001447],[-96.84141099980128,33.11618999976383],[-96.84140800032654,33.11609000014283],[-96.84140699960332,33.11603599978852],[-96.8414059997784,33.11596199989002],[-96.84139400008284,33.115245999950034],[-96.84139099970977,33.1149909997568],[-96.84138800023506,33.11461000026636],[-96.841384999862,33.11415300004261],[-96.84138400003712,33.1138220003189],[-96.8413830002122,33.11371699968908],[-96.84138099966404,33.1132540002735],[-96.84138099966404,33.11322399969741],[-96.8413830002122,33.11315400031982],[-96.84137999983915,33.113027000274734],[-96.84137999983915,33.11300500014754],[-96.84137999983915,33.11298000009893],[-96.84137200034154,33.1116540001457],[-96.84137700036439,33.11156699972149],[-96.84137700036439,33.111429999743656],[-96.84137800018931,33.11128600036603],[-96.84137999983915,33.11114199999992],[-96.84138400003712,33.11087000000213],[-96.84139099970977,33.110461999931296],[-96.84139200043302,33.11039599986354],[-96.84139400008284,33.11032899974399],[-96.84139699955757,33.110120999799925],[-96.84139900010572,33.10995299963026],[-96.84139999993063,33.109912000108864],[-96.84140099975554,33.10984699963559],[-96.8414059997784,33.10958300022884],[-96.84141099980128,33.10925399986925],[-96.8414190001972,33.10879999968286],[-96.84142199967194,33.108620999760134],[-96.84142400022009,33.1084660000369],[-96.84142699969479,33.10829400036376],[-96.84143099989275,33.10807999995035],[-96.84143199971768,33.10798800035786],[-96.84143500009073,33.10780200006961],[-96.84143799956546,33.10761800020616],[-96.84144900033442,33.10693499982979],[-96.84145099998426,33.10681700020413],[-96.84145199980915,33.10673399967744],[-96.84145600000711,33.10654999983494],[-96.84146000020509,33.10628200011115],[-96.84146100003,33.106195999684054],[-96.8415039996877,33.10361400024961],[-96.84151999958122,33.10261799985831],[-96.84154700024371,33.10094599990611],[-96.84154800006863,33.10086600018398],[-96.84154999971845,33.10078500027824],[-96.84155200026659,33.10067199972759],[-96.84155399991641,33.10055799967089],[-96.84156999980993,33.09951099966083],[-96.8415820004038,33.09882200019491],[-96.8415820004038,33.09877299967877],[-96.84159199955124,33.09815499993145],[-96.84159499992431,33.097975000006265],[-96.8416099999929,33.09708699969659],[-96.84161400019086,33.09687100027839],[-96.8416169996656,33.09665599973467],[-96.84161800038882,33.09658999983333],[-96.84161900021374,33.09652500004163],[-96.84161900021374,33.09647999963673],[-96.84161900021374,33.09643700028183],[-96.84162099986355,33.09638199972875],[-96.8416230004117,33.096343999627514],[-96.84162599988643,33.09625199978974],[-96.84163099990931,33.095906000126774],[-96.84163500010726,33.09555999985452],[-96.8416660000694,33.0936700002141],[-96.84169700003156,33.09240499992896],[-96.84174499971212,33.09049999979043],[-96.84176099960564,33.08987100026062],[-96.84176399997868,33.089762000171774],[-96.84176700035174,33.08965299994786],[-96.84179699959066,33.088485000107525],[-96.84180800035962,33.08804500007773],[-96.84184599999446,33.08654400005679],[-96.8418490003675,33.08645600009084],[-96.84185400039036,33.086263999996355],[-96.8418560000402,33.08618699978577],[-96.8418569998651,33.086121000304274],[-96.84186000023817,33.08599699966202],[-96.84186100006306,33.08593299984479],[-96.84186600008593,33.08564899971762],[-96.84186699991086,33.08557600010391],[-96.84187100010884,33.08539499972805],[-96.84187600013168,33.08514599969578],[-96.84191899978939,33.082966000372686],[-96.84192999966005,33.08273600022408],[-96.8419820004369,33.08161399967171],[-96.84204500018608,33.080260000080294],[-96.842046000011,33.08019099963194],[-96.84204699983592,33.08012300022794],[-96.84205299968367,33.07947900021107],[-96.84205900042978,33.07933999993822],[-96.84206299972944,33.07925400024966],[-96.84209000039192,33.07867100018778],[-96.84211700015611,33.07808800002549],[-96.84212499965372,33.07792099997074],[-96.84213200022471,33.077754000351675],[-96.84214300009538,33.07750800013695],[-96.84214399992028,33.07749699976861],[-96.8421449997452,33.07746299978459],[-96.84215800016399,33.07697700008234],[-96.84217099968448,33.07649000031882],[-96.842186999578,33.07588800004748],[-96.84219300032407,33.07558899991454],[-96.84219499997393,33.07545700005115],[-96.84219699962372,33.07532799968533],[-96.84221500006541,33.07431799976521],[-96.84221699971523,33.07419399979568],[-96.84221599989031,33.07406899998948],[-96.84221500006541,33.0737120002696],[-96.84221800043844,33.07367299973799],[-96.84222699976095,33.07355999972144],[-96.84223500015688,33.07346399995307],[-96.84224600002753,33.07332000010411],[-96.84224600002753,33.07329299996503],[-96.84224799967738,33.07311499967729],[-96.8422569998982,33.07210799975151],[-96.8422569998982,33.072085000236754],[-96.84225500024839,33.07194499988626],[-96.84225299970024,33.07171699965589],[-96.84226799976884,33.0714190000951],[-96.84227000031701,33.07138200019033],[-96.84227000031701,33.071346999655766],[-96.84227299979172,33.07116300027269],[-96.84227500033985,33.07101500012974],[-96.84227699998966,33.070866000039494],[-96.84228799986033,33.07009300024526],[-96.8422920000583,33.06977899981507],[-96.84229600025625,33.06944899982399],[-96.84229799990608,33.06927699984445],[-96.84229899973099,33.06903199973507],[-96.84229999955589,33.068786999696414],[-96.84230299992895,33.06869399991178],[-96.84230700012691,33.068601000028885],[-96.84230799995181,33.068546000132805],[-96.84230999960164,33.06837099996108],[-96.84231799999756,33.06775600029645],[-96.84232200019552,33.067489999979145],[-96.84232999969313,33.06689900004715],[-96.84234800013478,33.06587899992346],[-96.84235099960954,33.06557299983951],[-96.84235499980748,33.065192999715656],[-96.84236200037849,33.06456000005245],[-96.84236599967815,33.0640280003729],[-96.84236900005118,33.06363999985232],[-96.84236900005118,33.063580000209015],[-96.84236900005118,33.06356499972716],[-96.84236900005118,33.06355399987404],[-96.84236900005118,33.063536000043015],[-96.84236900005118,33.06350999969508],[-96.84236900005118,33.06349599973618],[-96.84236900005118,33.06347600032875],[-96.8423699998761,33.063436999777366],[-96.8423699998761,33.0633119997468],[-96.84236499985323,33.06329600018778],[-96.8423699998761,33.063216999875806],[-96.8423699998761,33.06303699995801],[-96.8423699998761,33.06294199979025],[-96.84236900005118,33.06254500011124],[-96.84236900005118,33.06253099999885],[-96.84236900005118,33.062491999781585],[-96.84236900005118,33.06233899963097],[-96.84236900005118,33.06230899974737],[-96.84236900005118,33.062184000373385],[-96.84236900005118,33.062116999648055],[-96.84236900005118,33.061890000103986],[-96.84236800022629,33.06111699976279],[-96.84236700040135,33.060139000373674],[-96.8424259999526,33.05875999964087],[-96.84244900041713,33.05822800029087],[-96.8425039997704,33.05695000034996],[-96.84250799996836,33.05687100036571],[-96.84251100034142,33.056789999841236],[-96.84253599955746,33.056195999992106],[-96.8425389999305,33.056135999792104],[-96.84254499977828,33.05598999971182],[-96.84256200039503,33.05560199989984],[-96.84258099976329,33.05515499964414],[-96.84261300044865,33.054424999981364],[-96.84262099994626,33.054225000152],[-96.84262199977118,33.05420500014406],[-96.84262400031932,33.05407899991443],[-96.84263199981692,33.053636999678865],[-96.84264699988555,33.053099000087805],[-96.84266000030433,33.052629999748234],[-96.84266199995416,33.05257399975427],[-96.84266600015211,33.052439000281204],[-96.84268500041868,33.05177999996025],[-96.8426929999163,33.05149399968022],[-96.84270299996203,33.05105900023766],[-96.84270799998492,33.050842999975664],[-96.84270999963472,33.05076700031519],[-96.84272300005352,33.050104999725995],[-96.84272499970336,33.0500339998564],[-96.84272800007638,33.0499450003314],[-96.84273499974908,33.04990100012686],[-96.84274099959687,33.049505000308905],[-96.84274700034295,33.049100999899295],[-96.84274700034295,33.04907199996818],[-96.84275499984057,33.04903800029645],[-96.8427580002136,33.04902500024134],[-96.84274899999278,33.04897999963024],[-96.84275300019074,33.04882200034795],[-96.84276599971122,33.048212000163346],[-96.84277199955899,33.04790399973869],[-96.84277699958187,33.04767599972794],[-96.84278300032797,33.0474299997677],[-96.84278699962762,33.04722599999579],[-96.8427919996505,33.047027000349786],[-96.84280199969623,33.04665799969149],[-96.84280800044233,33.04641599980381],[-96.8428059998942,33.046086000322916],[-96.84280500006929,33.04584400036954],[-96.84280500006929,33.045768000159896],[-96.84280900026725,33.045608999647754],[-96.84281099991706,33.04551600022396],[-96.84281299956687,33.04542499992348],[-96.84285899959765,33.0434740001413],[-96.84288000041236,33.04250700003164],[-96.842883999712,33.042406000172576],[-96.84288600026015,33.04230600022044],[-96.84288700008504,33.042261999964516],[-96.84289100028302,33.04202600020223],[-96.84289299993283,33.04193900016861],[-96.84290899982636,33.04183200024314],[-96.84289399975773,33.04172200009986],[-96.84289499958267,33.041407000093336],[-96.84289999960552,33.04060500018913],[-96.84290299997858,33.04011800023156],[-96.84290100032875,33.03946199975034],[-96.84290100032875,33.039396999918814],[-96.8429470003595,33.038615000329536],[-96.84294900000933,33.038500000358155],[-96.84302799965204,33.03433500025663],[-96.84307100020808,33.031808999769645],[-96.8430739996828,33.03171700022895],[-96.84307600023092,33.031624999839124],[-96.84308600027667,33.031256000183625],[-96.84309499959919,33.030889000040666],[-96.84309999962205,33.03067599973285],[-96.8432069997522,33.030389000056104],[-96.84322099999588,33.03033800027031],[-96.8432069997522,33.03003899980994],[-96.84324100008739,33.02978099983163],[-96.84324199991228,33.02966599962709],[-96.8432429997372,33.029584000273736],[-96.84325199995801,33.02874899989654],[-96.84326100017884,33.02796199977174],[-96.84326200000378,33.02786300018095],[-96.84327000039968,33.027102000237505],[-96.84326700002664,33.026200999713076],[-96.8432639996536,33.02601999999386],[-96.8432650003768,33.025967000276204],[-96.84326600020172,33.025913999773515],[-96.84326700002664,33.02573700030799],[-96.8432789997222,33.02562399976975],[-96.84327500042257,33.02540199987007],[-96.84327600024747,33.02467600003948],[-96.84332899995093,33.022697999631696],[-96.84333200032395,33.02256000032911],[-96.84334599966937,33.02181899962633],[-96.8433559997151,33.02107899973736],[-96.84335900008814,33.02086200026644],[-96.8433559997151,33.02009699979036],[-96.84336900013388,33.01918300003332],[-96.84337300033185,33.01903800000036],[-96.84336800030897,33.01895599979822],[-96.84336400011102,33.01887299998446],[-96.84336599976085,33.018741999738225],[-96.84336699958575,33.01870000034828],[-96.84337400015676,33.018278000238574],[-96.84343000023327,33.018105000188115],[-96.84349100033263,33.01797999984028],[-96.84349399980736,33.01781599965147],[-96.84358500004396,33.016646999770465],[-96.84358000002108,33.016498999892825],[-96.84360599996036,33.01605000017937],[-96.84361900037915,33.01578899971283],[-96.84362199985388,33.01573900008939],[-96.84363899957232,33.0153799997309],[-96.84364799979315,33.01501900025915],[-96.8436510001662,33.0149130003693],[-96.8436729999075,33.01435699996876],[-96.84369800002186,33.01372000037617],[-96.84370899989253,33.0134470001106],[-96.84370899989253,33.013428999831596],[-96.84370300004474,33.013192999684016],[-96.84370300004474,33.01287800014345],[-96.84370300004474,33.01276999997742],[-96.84370300004474,33.01274300010353],[-96.84370300004474,33.01260399992457],[-96.84371399991538,33.01233499991523],[-96.8437149997403,33.012301999989184],[-96.84372399996111,33.01207599973017],[-96.8437490000755,33.011707999962155],[-96.84377599983968,33.01133600017531],[-96.84377699966457,33.01132200020937],[-96.84379299955812,33.01110399970005],[-96.84379299955812,33.01077100016237],[-96.84379299955812,33.01047099999089],[-96.84379299955812,33.01044699981258],[-96.84379299955812,33.01042899967454],[-96.84379599993115,33.010264000121296],[-96.8438119998247,33.0092809998548],[-96.84382199987043,33.00895000026278],[-96.84383799976395,33.0084590000296],[-96.84376400014409,33.00847099963676],[-96.84377199964172,33.00828400023703],[-96.84378500006049,33.00798899969303],[-96.84377599983968,33.007966000004984],[-96.84377599983968,33.00793599968229],[-96.8437780003878,33.00777900028791],[-96.84377900021272,33.00769399966909],[-96.84378199968745,33.00733400003956],[-96.8437840002356,33.00717300014828],[-96.84378500006049,33.00702900037551],[-96.84379000008337,33.00645100033463],[-96.84379299955812,33.00641000004056],[-96.84382900044142,33.00581200001673],[-96.84380799962672,33.005570999888924],[-96.8438119998247,33.00515200005599],[-96.84381600002266,33.004756000270646],[-96.84382900044142,33.00399100018817],[-96.84382299969533,33.00397100007736],[-96.84382900044142,33.00395300012436],[-96.84383199991616,33.00329799988165],[-96.84383299974108,33.0031849999655],[-96.8438489996346,33.002280999945974],[-96.84386000040358,33.00169000017749],[-96.8438629998783,33.00152599982932],[-96.84390700025924,33.000432999677315],[-96.84391999977971,32.99984399983905],[-96.84392999982543,32.99941999964083],[-96.84392999982543,32.9991320001637],[-96.84394700044218,32.99860799975009],[-96.84397199965824,32.997805000148944],[-96.84397400020639,32.99768999967351],[-96.84398099987907,32.99736600024685],[-96.84398199970398,32.997312000101154],[-96.84398300042722,32.997241999667764],[-96.84398400025214,32.997210999684164],[-96.8439759998562,32.99714400002256],[-96.84397400020639,32.997131999627996],[-96.84394499989406,32.99697499984053],[-96.84394700044218,32.99682499977786],[-96.84395400011489,32.99646699982327],[-96.84397000000843,32.99556700023546],[-96.84398199970398,32.99507399973861],[-96.84402500026,32.99270900021871],[-96.84406299989486,32.99064499976564],[-96.84408600035938,32.989418000000484],[-96.84409700023004,32.98890799967974],[-96.8441220003444,32.98743499974582],[-96.84346399967013,32.987426999858606],[-96.84219800034698,32.987411000082],[-96.84205699988165,32.98741000019008],[-96.84083099984313,32.98739399965689],[-96.84029400044102,32.9873869996582],[-96.84004400019576,32.987384999873754],[-96.83895500042462,32.98736999998198],[-96.83743499975989,32.9873499998711],[-96.83607700037521,32.98733300018775],[-96.83507200026965,32.98732000007308],[-96.83492400013164,32.987318000287125],[-96.83373099970508,32.98730299963045],[-96.83001199958166,32.987255000224565],[-96.82871699994617,32.987240000310685],[-96.82851899957946,32.98723599998158],[-96.82844099976165,32.987234000193716],[-96.8283670001418,32.987234000193716],[-96.82820599958501,32.987231999652295],[-96.82260299964712,32.98715999972228],[-96.82005299966082,32.98712700017431],[-96.81893200010259,32.987112000238625],[-96.81556899963132,32.98707000010395],[-96.81455900040116,32.98705699995051],[-96.81335500010397,32.9870410001069],[-96.80684699961962,32.98695799964699],[-96.80676200012913,32.986956999749886],[-96.80669500018197,32.986955999852825],[-96.80564400004565,32.9869429996826],[-96.80528500002043,32.986938000196275],[-96.80520600037774,32.98693700029895],[-96.80387900005688,32.98691999978259],[-96.80369400010895,32.98691700009002],[-96.80342999962,32.98691399964386],[-96.80324499967206,32.9869119998487],[-96.79876900003848,32.986854999639526],[-96.79735800005206,32.98683600006396],[-96.79663900017674,32.98682800012246],[-96.7954959999789,32.98681300013603],[-96.79381600037895,32.986791000101036],[-96.79236699985935,32.986770999859026],[-96.79221299987356,32.986769000060626],[-96.7915459998768,32.986760000213714],[-96.78838300032037,32.986716000111905],[-96.78647600004138,32.98669200025265],[-96.78562800029464,32.98667999994379],[-96.7844149997766,32.986664000031844],[-96.78400499969777,32.98665899977615],[-96.78384099966625,32.98665699997521],[-96.7817950003684,32.986631000298395],[-96.77867499957136,32.98658800003357],[-96.77659699958815,32.98656200033638],[-96.7747400004362,32.98653699977987],[-96.77349699978092,32.986521999744],[-96.77252699983545,32.98651000016554],[-96.77142800001855,32.986495000125075],[-96.76824700002045,32.986454000353106],[-96.76809499968448,32.986451999794],[-96.76615499979354,32.9864260000568],[-96.7644890004373,32.98640399992537],[-96.76265699960305,32.98638099988487],[-96.76140399980035,32.986363000111076],[-96.76081600034462,32.986356000030625],[-96.7592799997864,32.98633599969007],[-96.7588990000199,32.98632900036094],[-96.75854900021552,32.9863259998948],[-96.75838400035907,32.98632400008632],[-96.75646399966129,32.986298000311365],[-96.75623600005565,32.98629499984418],[-96.75601699977254,32.986292000130426],[-96.75517800024664,32.98627999976719],[-96.75504500017723,32.986277999957665],[-96.75489100019145,32.98627500024325],[-96.75395600040608,32.986262999877766],[-96.75373200010009,32.98626100006786],[-96.75099200014297,32.986222999903426],[-96.74842600026312,32.98618900009931],[-96.74704399969069,32.986169999626924],[-96.74597900020896,32.98615600018834],[-96.74435999981009,32.98613399998962],[-96.74415899996862,32.986131000270376],[-96.74366100002624,32.98612400017148],[-96.74356099956881,32.98612300026498],[-96.74156399977645,32.9860959997705],[-96.74112000026074,32.986090000329284],[-96.7389209999037,32.98605900019578],[-96.73798000027055,32.98604499998612],[-96.73601699991505,32.986020000036724],[-96.73569800007282,32.986015999652324],[-96.73496999997668,32.98600599982082],[-96.73341800042324,32.98598600015448],[-96.73302599988779,32.98597999995227],[-96.73225400030901,32.98596900020838],[-96.72986699963099,32.98593600021517],[-96.72969599992679,32.9859350003065],[-96.7290080000136,32.98592600037462],[-96.7282759997195,32.985915999779394],[-96.72818000035836,32.98591399996162],[-96.72805899998453,32.98591300005275],[-96.72705399987893,32.985898999819874],[-96.72604100027576,32.985885000338314],[-96.72500799968277,32.985871000101056],[-96.72489100040522,32.98586900028227],[-96.7232000000363,32.98584700001201],[-96.72246199989442,32.98583700016136],[-96.72021400003189,32.98580699984916],[-96.71915200002492,32.98579199968923],[-96.71852600003602,32.985783999653115],[-96.7182070001938,32.98577900010116],[-96.7180730002995,32.98577800019069],[-96.71769300035788,32.98577199997435],[-96.71704700027752,32.985764999847035],[-96.7168909997436,32.98576200011521],[-96.71655000016005,32.985756999808466],[-96.71580899964512,32.98574799985844],[-96.71513499997565,32.98573799999658],[-96.713040000274,32.985709000315445],[-96.71179900016686,32.98569200031607],[-96.71167299977017,32.985690999651155],[-96.71152800000522,32.985688999828284],[-96.7112590003917,32.985685000182414],[-96.71106799969768,32.985681999694336],[-96.71098300020718,32.985680999782836],[-96.71072000044144,32.9856770001366],[-96.70973399970413,32.98566499968976],[-96.7092940003864,32.985644999946096],[-96.70855100022163,32.98561299974405],[-96.70838999966485,32.98560499969171],[-96.7054849998513,32.98547800017674],[-96.70494000005324,32.98553000020197],[-96.70483200009821,32.98554100000055],[-96.7047750001968,32.98554600031952],[-96.70475500010532,32.98554800014563],[-96.70463999957926,32.98554499965295],[-96.70435400024733,32.98554100000055],[-96.70412699956829,32.98553700034797],[-96.70393599977258,32.985533999854866],[-96.7019659997444,32.985499999785425],[-96.70168899973496,32.985462999960916],[-96.70124199984622,32.985425000206476],[-96.69985599997412,32.9853800002778],[-96.69977300013343,32.985376999779405],[-96.69969799979037,32.98537799969435],[-96.69960900010192,32.9853800002778],[-96.69889000022661,32.98536300021506],[-96.69708199968183,32.9853210000017],[-96.69601899984993,32.985296999763165],[-96.6956299996875,32.98528799976618],[-96.69534400035555,32.98528100035402],[-96.69533900033267,32.98538399993748],[-96.69516899955504,32.98538200010766],[-96.69506499979798,32.9853800002778],[-96.69481799992577,32.98537599986439],[-96.69451499997707,32.985370000374246],[-96.69379199990381,32.9853569999705],[-96.69303000037077,32.985342999649504],[-96.69266899979743,32.98533899998795],[-96.69233900008456,32.98533199982625],[-96.69185899968554,32.98532399974851],[-96.6909980004183,32.98531000017576],[-96.69077400011231,32.98530599975918],[-96.69034499976695,32.98529799967902],[-96.69020500002485,32.985295999847246],[-96.69010899976537,32.98529499993138],[-96.68944299959352,32.98528400010215],[-96.68869899960384,32.985267999937165],[-96.68795399978926,32.98525899993722],[-96.68576299982816,32.98528799976618],[-96.6849009998377,32.98530900025998],[-96.68454400036066,32.98531700033914],[-96.68431199965873,32.98531299992289],[-96.68246899985218,32.985285999934185],[-96.68229200030014,32.985285000018195],[-96.67874600042909,32.98523399976522],[-96.67589900034186,32.98519400007814],[-96.67570299962495,32.98519100032691],[-96.67480600037273,32.98517899981405],[-96.67353500012837,32.98515999987776],[-96.67339700003608,32.985158999960284],[-96.67257199985558,32.98514700019655],[-96.67216299960167,32.98514099993737],[-96.67159100003944,32.98513299984226],[-96.66989600037088,32.985109000306096],[-96.66948100026919,32.985103999962384],[-96.66942400036777,32.98510300004427],[-96.6690529997487,32.985097999700216],[-96.66804099997044,32.98508300017335],[-96.66665199972529,32.98506300029783],[-96.66643800036336,32.98505999978866],[-96.66618399992016,32.98505600011429],[-96.66579800013076,32.98505199968622],[-96.66547400026568,32.985047000092734],[-96.66517999963948,32.985044000336565],[-96.66508099990526,32.985041999745505],[-96.66144399979763,32.98499000018636],[-96.66066499964788,32.98498000023862],[-96.66050499981428,32.98497699972665],[-96.65397200011388,32.98488099986621],[-96.64914599977764,32.98481699965015],[-96.64840299961288,32.98480599976136],[-96.64776300027859,32.98479599979285],[-96.64087200037793,32.98469899981296],[-96.6406949999276,32.9846940001995],[-96.63888599955789,32.98466999979052],[-96.63412899971692,32.98460400032752],[-96.63306199968707,32.98459500025988],[-96.63193100008314,32.98456800005158],[-96.6302260003688,32.98454700013504],[-96.62938000027188,32.98453400036363],[-96.62919799979869,32.98453099983649],[-96.62865800002353,32.9845229996861],[-96.62816500010403,32.98451600021322],[-96.62421900019989,32.98446099981471],[-96.62350100014947,32.98444999988161],[-96.62312600023076,32.984440999798274],[-96.62304099984193,32.984431999714076],[-96.62296200019924,32.98443999987271],[-96.62283599980252,32.98443800002151],[-96.62104700042264,32.98441199969107],[-96.61953000013098,32.984396000121535],[-96.61889699957108,32.98439099973743],[-96.61804799999942,32.9843730003114],[-96.61336700032643,32.984308999727],[-96.6108089999442,32.98427100022936],[-96.60888699959659,32.984242000066324],[-96.60818600016296,32.98423399988973],[-96.60683899975062,32.984213999821876],[-96.60560400038956,32.984190999964326],[-96.60444500029823,32.984177000211886],[-96.60321300041193,32.984162999703756],[-96.60210899967382,32.98414199969088],[-96.60101700042792,32.98412300028488],[-96.59991199986491,32.98410999969749],[-96.59888199964499,32.98409500000275],[-96.59784200027761,32.98408400002399],[-96.59599899957274,32.98405100007961],[-96.5942510002007,32.9840280001796],[-96.58746400005708,32.98392699963033],[-96.58492900013941,32.9838880000364],[-96.58421100008901,32.983878999895815],[-96.58379599998732,32.983866999958096],[-96.58345200003072,32.98385899974753],[-96.58034300000266,32.983825999719045],[-96.57908400035218,32.983811999908795],[-96.5775710002585,32.98378600014753],[-96.5763479996947,32.98376500004497],[-96.57504899986128,32.983743999937424],[-96.57346200014773,32.98371800015613],[-96.57291200032681,32.983705000262646],[-96.57232200032293,32.98370099977335],[-96.56955600042656,32.983662000079576],[-96.56851000031308,32.98364299981678],[-96.568398999985,32.98364099994752],[-96.56800200032497,32.98364099994752],[-96.5678070003313,32.98363700020886],[-96.56586900009017,32.983607999837545],[-96.5649140002133,32.983590000251866],[-96.56327499972292,32.983570000038114],[-96.56228899988392,32.98355400031597],[-96.56135599974837,32.98353999970904],[-96.56036099968854,32.98352599985338],[-96.55986299974617,32.983516999675835],[-96.5592889996358,32.98351000012326],[-96.55928500033616,32.98349800013539],[-96.55926299969654,32.983508000250986],[-96.5592099999931,32.983507000314795],[-96.55878599967056,32.98350099994415],[-96.55834899982756,32.98349199976407],[-96.55068700017303,32.98338000004224],[-96.54982900038054,32.9833680000367],[-96.54900400020003,32.98335600002952],[-96.54886000025998,32.98335400015376],[-96.54711399963948,32.98332599962767],[-96.54614500041723,32.98331299967645],[-96.54477399971542,32.98329100027631],[-96.54380200012014,32.983275999688864],[-96.54292199968802,32.98327199993367],[-96.54222999957688,32.9832589999745],[-96.54127499970004,32.983242000256816],[-96.53937400016713,32.9832089999977],[-96.53908799993687,32.983205000239465],[-96.53893999979888,32.98320300036028],[-96.53566699973929,32.98315199965812],[-96.53553399966988,32.98314999977773],[-96.53534799989706,32.98314699995704],[-96.53432400042321,32.98313200009868],[-96.53327699958653,32.98311500035654],[-96.53181799991951,32.983092000212665],[-96.53173799955358,32.98309100027183],[-96.53115000009782,32.98308200004995],[-96.52880900034886,32.983044999965536],[-96.52853399998926,32.98304000025846],[-96.52797499994753,32.98303399985601],[-96.52789999960446,32.98303299991452],[-96.52699999997918,32.98301899997845],[-96.52530199993755,32.9829939999256],[-96.5244590002137,32.9829809999255],[-96.5231019997556,32.98296500009661],[-96.52199100024313,32.98294599968382],[-96.52173599997501,32.98294099997113],[-96.52156299972263,32.98293800014334],[-96.52153500013355,32.98291200012468],[-96.52153400030863,32.98293800014334],[-96.52134199978971,32.9829350003155],[-96.51707000037064,32.98288200032555],[-96.5170109999211,32.98286199995142],[-96.5168789996766,32.982861000007965],[-96.51648100019167,32.982861000007965],[-96.5159690000056,32.9828629998949],[-96.51588699998982,32.98285800017746],[-96.51448600004912,32.98285199976264],[-96.51377700021956,32.98285199976264],[-96.51377499967143,32.98298599963598],[-96.5136109996399,32.9829809999255],[-96.51089199959917,32.98290199994163],[-96.5105340002972,32.98289199975738],[-96.50849499977373,32.98284300026999],[-96.5071199997723,32.98282599971865],[-96.50604400041993,32.98281600027935],[-96.50316600037054,32.98279400000186],[-96.49906499975738,32.9827539999627],[-96.49598500004163,32.982726999944894],[-96.49357300014758,32.982704999645165],[-96.4913989999049,32.98269200035606],[-96.4896730002742,32.98268499998447],[-96.48874799963625,32.98266199972858],[-96.48733199962693,32.98264799973368],[-96.48300099975832,32.982611000220935],[-96.48087900029248,32.982591999731945],[-96.47905400002925,32.98257599983257],[-96.47726300010122,32.98255999993028],[-96.47161499995748,32.98250900036372],[-96.46673900029084,32.98246700029964],[-96.46593800039977,32.982458999962205],[-96.46380099996699,32.98244200009048],[-96.4637099997304,32.98243900024579],[-96.4631189999016,32.98243599964744],[-96.44926199975718,32.98237599971539],[-96.44868799964682,32.98237299986845],[-96.44394900024751,32.98235999977687],[-96.44297299955595,32.98235799987854],[-96.43798700028444,32.98234399983549],[-96.43800400000289,32.982259000333556],[-96.43798800010934,32.98210400036623],[-96.43733500035627,32.98210400036623],[-96.43539600029024,32.982111999982266],[-96.43440399970513,32.982114999838075],[-96.43411599982505,32.982114999838075],[-96.43335699976676,32.98211799969383],[-96.43304999962012,32.98211799969383],[-96.43272099973214,32.98211799969383],[-96.4324589997913,32.98211799969383],[-96.43228200023931,32.98211899964569],[-96.43221299974404,32.98212000035109],[-96.43196699969673,32.98212100030298],[-96.43143600014238,32.98211899964569],[-96.43022400034758,32.982114999838075],[-96.42897599966943,32.982131999772776],[-96.428149999664,32.98212600006211],[-96.42737100041256,32.982111999982266],[-96.42180799975932,32.98200799964229],[-96.42111099962531,32.98200000001683],[-96.42007499955761,32.981999000063574],[-96.41928200006245,32.98199600020382],[-96.4191449997951,32.981994000297256],[-96.41911499965785,32.982238999818264],[-96.41911399983296,32.98225199992762],[-96.41664699968732,32.9822320001643],[-96.4165189996408,32.98223100021373],[-96.41334199984067,32.98220599993778],[-96.41334100001578,32.981954999849414],[-96.41321899981703,32.981953999895644],[-96.4128079999133,32.981954999849414],[-96.41225499971932,32.98195699975687],[-96.41137799966027,32.98195899966428],[-96.40983699997749,32.98194600026528],[-96.40947399975434,32.98194099974241],[-96.40889200014637,32.981935000018815],[-96.40884500029071,32.981935000018815],[-96.40863100003045,32.98193200015684],[-96.40861799961168,32.98193200015684],[-96.40848700009042,32.98193200015684],[-96.40837099973946,32.98193200015684],[-96.40603099981544,32.98190999965901],[-96.3987340000339,32.98191400022947],[-96.39807899973268,32.9819150001837],[-96.3969819995656,32.98191600013785],[-96.3969819995656,32.98221099969209],[-96.39642800044504,32.98220799983956],[-96.39587400042618,32.982204999986855],[-96.39561099976213,32.982204999986855],[-96.39534799999639,32.98220400003597],[-96.39529000027007,32.98220400003597],[-96.39490100010764,32.98220200013411],[-96.39451199994521,32.98220000023222],[-96.39361800016772,32.982195999674715],[-96.39272400039022,32.982190999919496],[-96.39261800008502,32.982189999968455],[-96.39251199977979,32.982189999968455],[-96.39201399983743,32.98218800006627],[-96.39151699971995,32.982185000212894],[-96.3902639999173,32.98217899975239],[-96.38955500008771,32.98217499994749],[-96.38904200007674,32.98217300004497],[-96.38877699976285,32.982172000093676],[-96.38784899965017,32.98216700033716],[-96.38740900033243,32.982164999680904],[-96.38603699980573,32.98215800002108],[-96.38555099955892,32.98215600011818],[-96.38546799971824,32.98215600011818],[-96.38508799977666,32.98215400021523],[-96.38330299969638,32.982145999849436],[-96.38280599957893,32.98214399994625],[-96.37969599972597,32.982128999917485],[-96.37941200004384,32.98212799996569],[-96.37871400008493,32.98212500011033],[-96.37596499990697,32.982114999838075],[-96.37542199975876,32.982111999982266],[-96.37212299975988,32.98209200018724],[-96.37208599994997,32.98209200018724],[-96.37072799966698,32.98208399981583],[-96.36569999966436,32.98206699987195],[-96.3615980001246,32.981878000363764],[-96.35747700031828,32.98189099977272],[-96.35737600003594,32.98196100032514],[-96.35693400017007,32.98198799982371],[-96.35584100020093,32.981929000294826],[-96.35502500024123,32.981929000294826],[-96.35463400042899,32.98197900024294],[-96.35434700037382,32.98201600002054],[-96.35401900031077,32.98195599980312],[-96.35343599997958,32.981929000294826],[-96.35303500012158,32.981905999841935],[-96.35236899994969,32.981860999626605],[-96.35193700012957,32.98195199998812],[-96.3516709999908,32.982002999876435],[-96.35105099984968,32.98200000001683],[-96.34187299972844,32.9819600003715],[-96.33766599970836,32.98193999978847],[-96.33662299996796,32.98180499987925],[-96.33649099972347,32.98181900000782],[-96.33531999993654,32.981822999828836],[-96.33420900042408,32.981819999963065],[-96.33398900031605,32.98181700009724],[-96.33388800003372,32.98181100036523],[-96.33363000029085,32.981802000012856],[-96.33279500006458,32.981802000012856],[-96.33249899978857,32.98179900014642],[-96.33229899977204,32.98179199970402],[-96.33118800025957,32.9817820001476],[-96.3297339997171,32.98176400018965],[-96.3293040004451,32.98175799970052],[-96.32913299984257,32.98175799970052],[-96.3289169999325,32.98175499983254],[-96.32888500014543,32.98175499983254],[-96.32848199973932,32.9817529999205],[-96.32832199990575,32.98175199996451],[-96.32799899986557,32.98175100000843],[-96.32769599991684,32.98174900009631],[-96.32659000042725,32.98173200008792],[-96.32589400011815,32.98172099981474],[-96.32525399988556,32.98171200020681],[-96.32459299973658,32.98170199988778],[-96.32376400025642,32.98168999965416],[-96.32360600007266,32.98167600025868],[-96.32351300018625,32.98166799984958],[-96.32341100007899,32.98164999986838],[-96.32333200043628,32.981628000053895],[-96.32320400038975,32.981578999864915],[-96.32307700016817,32.981489999790604],[-96.32285899970994,32.98170199988778],[-96.32270300007436,32.98184199972977],[-96.32253200037012,32.98175699974452],[-96.32241600001917,32.98171000029381],[-96.32227000042928,32.98167299963441],[-96.32219500008623,32.98166899980659],[-96.32214900005546,32.9816669998926],[-96.32099599981188,32.9816450000823],[-96.31894999961574,32.98167400034487],[-96.31888900041467,32.98167299963441],[-96.31376400032767,32.981599999733945],[-96.30906699986284,32.98159699986059],[-96.30409800030976,32.981549000366336],[-96.30378199994229,32.9815599999074],[-96.30321500040293,32.98155200024134],[-96.30276299959301,32.98159399998719],[-96.30132099964442,32.98177199983655],[-96.29876800018337,32.981760000365945],[-96.29792100026154,32.98175499983254],[-96.29750899963457,32.98175199996451],[-96.29722699960227,32.98175199996451],[-96.29708000018748,32.98687399996451],[-96.29703599980655,32.988399999941194],[-96.29702699958574,32.98871000009973],[-96.29702599976082,32.98875300008433],[-96.29701599971509,32.989084000105734],[-96.29701300024033,32.98917800017233],[-96.29701200041544,32.989224000296666],[-96.29699800017173,32.989730999947994],[-96.29699300014886,32.989893999750784],[-96.29699200032394,32.989943999708515],[-96.29699099960072,32.9903000000356],[-96.29698499975295,32.99238599966826],[-96.29698499975295,32.992488000168116],[-96.29698399992803,32.992732999948835],[-96.29698399992803,32.99289600023501],[-96.29697600043042,32.99582100018661],[-96.29697999973008,32.99637799969118],[-96.29682999994225,33.00165100014527],[-96.29674899975137,33.00449500027903],[-96.29674000042887,33.00482899985296],[-96.29675600032239,33.0052429997574],[-96.2967649996449,33.005418999997964],[-96.29676299999508,33.00701199996307],[-96.29675899979712,33.01103399966411],[-96.29675899979712,33.0119350000251],[-96.29673899970564,33.01940600006014],[-96.29673799988072,33.01986600004611],[-96.29673799988072,33.02003500005866],[-96.29673700005583,33.02020399974724],[-96.29673600023091,33.02040099993355],[-96.29672700001008,33.02354099971897],[-96.29671799978924,33.02669000017096],[-96.29671799978924,33.02670800000204],[-96.29668900037524,33.03038000014035],[-96.29668799965202,33.030457999630755],[-96.29664599981922,33.035580999904326],[-96.2966509998421,33.03931299971789],[-96.296651999667,33.03990400034514],[-96.296651999667,33.04041799966872],[-96.296651999667,33.04067500008849],[-96.29665300039022,33.04114700019563],[-96.29664499999431,33.0429260000517],[-96.2966299999257,33.046842999823],[-96.2966299999257,33.04689499981442],[-96.29662400007793,33.04819100033971],[-96.296623000253,33.04867600018719],[-96.29654500043519,33.0515009998614],[-96.29652899964336,33.05209700033837],[-96.29646400024434,33.0544570000625],[-96.29645800039657,33.057242999949],[-96.29645400019861,33.060187000010615],[-96.2964530003737,33.06147899991747],[-96.2964530003737,33.06166799974148],[-96.29645199965046,33.06255399975211],[-96.29645099982555,33.062809999775176],[-96.29645099982555,33.063012000003006],[-96.29645000000065,33.06334800024959],[-96.29645000000065,33.06345399984613],[-96.29644900017573,33.063507000349354],[-96.29644900017573,33.064832000299084],[-96.29644900017573,33.06540999991406],[-96.29639099955111,33.067515000167745],[-96.29635700011421,33.06876900018286],[-96.29634299987052,33.06929099963647],[-96.29626300040287,33.07217300027858],[-96.29625300035715,33.07256100006335],[-96.29625199963392,33.073091999673046],[-96.296250999809,33.073822000343995],[-96.29624699961104,33.07394899982777],[-96.29622200039499,33.07469400025557],[-96.29619899993047,33.075403000323625],[-96.29618100038712,33.076722999888226],[-96.29618700023491,33.07804299996984],[-96.29618700023491,33.07868499999056],[-96.29623099971752,33.08867900036547],[-96.29618300003696,33.09687100027839],[-96.29618300003696,33.09740000032608],[-96.29618300003696,33.09763599987375],[-96.29618300003696,33.09782099971075],[-96.29618300003696,33.098396999785066],[-96.29618300003696,33.09878200012887],[-96.29618300003696,33.09908600032491],[-96.29618100038712,33.09919299988383],[-96.29617299999121,33.09979600028667],[-96.29616600031851,33.100186000358356],[-96.29616499959528,33.10027300001089],[-96.29616299994545,33.100378000151565],[-96.29615500044785,33.10042500029573],[-96.29615700009768,33.10048099993834],[-96.29616299994545,33.10061999990491],[-96.29606400021126,33.101971000249485],[-96.29607599990683,33.10562699994346],[-96.29609000015053,33.109460000336924],[-96.2961239995874,33.11885299967114],[-96.29612000028776,33.12137799995451],[-96.29619100043288,33.12750400029045],[-96.29617100034139,33.12785699978101],[-96.29607500008191,33.130833999630454],[-96.29604599976959,33.13167600019805],[-96.29598600039346,33.13339800031355],[-96.2959679999518,33.13393599994352],[-96.29592699994392,33.13511800030718],[-96.29592500029409,33.13515600018717],[-96.29592500029409,33.1352129999763],[-96.29591699989818,33.140172000148766],[-96.29591699989818,33.14033499987061],[-96.29590900040056,33.14217899982763],[-96.29590699985242,33.14249800007946],[-96.29590600002751,33.14277199991465],[-96.29590100000463,33.14353800031692],[-96.29590000017974,33.14376899965714],[-96.29590100000463,33.14394200017465],[-96.29590000017974,33.144102999675916],[-96.29590000017974,33.144163999643375],[-96.29589900035482,33.14439099963063],[-96.29589900035482,33.144501000006336],[-96.29589500015686,33.1453130001954],[-96.29589299960872,33.1457810000512],[-96.29588799958584,33.14709700028045],[-96.29588599993602,33.1474809996928],[-96.2958840002862,33.14784699981288],[-96.29588299956299,33.14809899988338],[-96.29588299956299,33.14817299977256],[-96.29588199973806,33.14836499996643],[-96.29588099991315,33.14854900019664],[-96.29588000008822,33.148848000311766],[-96.29588000008822,33.14897799988047],[-96.2958769997152,33.14909400014297],[-96.29585999999676,33.14975900032141],[-96.29584999995103,33.150153999663914],[-96.29578899985165,33.15253199966627],[-96.2957579998895,33.153712999734395],[-96.29575600023968,33.153811999862846],[-96.29575500041477,33.15387700012946],[-96.29575399969154,33.15390799985783],[-96.29576600028544,33.15395099965701],[-96.29577299995812,33.15398699989247],[-96.29578800002673,33.154047000252],[-96.29579800007248,33.15406899987216],[-96.295813999966,33.15410800007406],[-96.29582300018683,33.154191999697915],[-96.29581800016396,33.154227999834454],[-96.2958130001411,33.15427700024719],[-96.29579999972229,33.1543360001553],[-96.29576600028544,33.15661700018312],[-96.29572699992735,33.15925700028451],[-96.29572500027754,33.159371000098666],[-96.2957229997294,33.15944699989242],[-96.2957219999045,33.15951000010694],[-96.29572100007958,33.159569000254834],[-96.29572000025468,33.15964899989482],[-96.29566300035329,33.162740000327084],[-96.29557999961426,33.16763700016436],[-96.29556899974364,33.169220999731586],[-96.2955110000173,33.1772449997493],[-96.29550900036747,33.17769000019246],[-96.29551400039036,33.17771199989556],[-96.29548099988007,33.18671600031322],[-96.29548000005516,33.187227000247404],[-96.29547900023024,33.187280999645566],[-96.29547900023024,33.187416000250636],[-96.29547800040534,33.187525000158594],[-96.29546599981147,33.19109099986458],[-96.29545599976571,33.19259700030498],[-96.29539899986432,33.19945100032975],[-96.29539499966634,33.20020800035394],[-96.29537499957488,33.20178399974016],[-96.29531900039669,33.20612200018302],[-96.29529099990928,33.20830100034587],[-96.29523300018296,33.21006900017763],[-96.29522800016008,33.21020600020876],[-96.2952230001372,33.21031700029071],[-96.2951300002508,33.212473999752326],[-96.29505699955754,33.21611899991449],[-96.29507199962615,33.217635000302224],[-96.2950730003494,33.21772500009217],[-96.29509900028866,33.21826100029746],[-96.29510099993848,33.2182800002585],[-96.29514600014431,33.21920800001799],[-96.29515299981702,33.21970600011464],[-96.29525499992425,33.22684699987498],[-96.29542599962849,33.22994499968025],[-96.29542999982645,33.230013000247894],[-96.29529000008438,33.23307399972482],[-96.29533299974206,33.23693899993062],[-96.2953489996356,33.238330999864694],[-96.29535700003152,33.239040999933465],[-96.29529799958199,33.242865000356915],[-96.29506999997633,33.24448599968737],[-96.2950759998241,33.24577899989719],[-96.29508599986987,33.24786400028741],[-96.29508400022004,33.2480129996952],[-96.29508500004495,33.248030000085464],[-96.29508300039512,33.24817500023033],[-96.29508000002208,33.24843199986504],[-96.29506400012856,33.250114000203865],[-96.29520600041877,33.25300999990943],[-96.29520999971841,33.25310699999199],[-96.29520999971841,33.253145999669485],[-96.29522399996212,33.259058999764896],[-96.2952480002516,33.26992300022146],[-96.29526099977204,33.281835000236406],[-96.29527500001576,33.28484599999152],[-96.29527599984067,33.28527700006662],[-96.29527599984067,33.28541799968313],[-96.29530000013011,33.29047500007432],[-96.29530299960484,33.291113999798895],[-96.29530400032807,33.291408999667496],[-96.29530599997788,33.292120999759774],[-96.29530799962772,33.29250600011347],[-96.29531199982567,33.293442000072034],[-96.2953140003738,33.294451999906265],[-96.29531600002363,33.29543399982692],[-96.29531699984854,33.29548199990213],[-96.29532100004651,33.298405999913655],[-96.29532500024447,33.301473999692874],[-96.29533600011514,33.304862000044054],[-96.29533600011514,33.304997000096286],[-96.29535200000863,33.3133100003707],[-96.29535200000863,33.31333600024693],[-96.29537899977282,33.32635499966196],[-96.29539200019163,33.33240499990261],[-96.29537799994792,33.33999300019825],[-96.29538499962061,33.34155800003672],[-96.29542499980357,33.35142499979659],[-96.2954330001995,33.351459000057126],[-96.29541300010801,33.35193600030426],[-96.29945600009654,33.35151100029756],[-96.30534799973942,33.350892999904914],[-96.30739800013356,33.35058100028402],[-96.30928000029819,33.35029299987246],[-96.30972800001184,33.35023100001356],[-96.30980400017982,33.350223999663584],[-96.30999800034859,33.350210999977],[-96.31031999966555,33.350180000023926],[-96.31047600019949,33.35015999997566],[-96.31094400000461,33.35014299996855],[-96.3110629998303,33.35013800014241],[-96.31114300019625,33.35014499974889],[-96.31141199980975,33.35014900005976],[-96.31163600011575,33.350121000131004],[-96.31211399996663,33.35000999984266],[-96.31238400030335,33.349963000042926],[-96.31251999984748,33.349941000159895],[-96.31261299973391,33.34992599989539],[-96.31297400030726,33.349869000367406],[-96.31412900020065,33.349737000092944],[-96.3152099995759,33.34962600006534],[-96.31524899993396,33.34962300000177],[-96.31608400016023,33.34952400009773],[-96.31610699972644,33.349521000030656],[-96.31632500018463,33.34949100010468],[-96.31698100031076,33.34940900020428],[-96.31719999969557,33.34938100003759],[-96.31731600004649,33.349365999676536],[-96.31767199969867,33.34932299987802],[-96.31805599983824,33.349275999707416],[-96.31808900034851,33.3492750001825],[-96.31816999964104,33.349272000106836],[-96.31834399971831,33.34924800024835],[-96.31938700035704,33.349104999734806],[-96.32018999989795,33.34897599988871],[-96.32159000001373,33.34879800036307],[-96.32176900011387,33.34877300009283],[-96.32231800010986,33.34869900027132],[-96.32274499990713,33.348637000027644],[-96.3229109995885,33.34861699962491],[-96.32295099977145,33.34860999989564],[-96.32307200014527,33.34859300033629],[-96.32311300015316,33.34858799967071],[-96.32370900000481,33.34849700011384],[-96.32549800028303,33.34822700023392],[-96.32594799964652,33.34815999971439],[-96.32609499995962,33.34813500001132],[-96.32619500041704,33.34812099972423],[-96.32629499997616,33.34810599989651],[-96.32641999964962,33.34808699966082],[-96.32684999981994,33.34802400019243],[-96.32739899981594,33.347952999855515],[-96.32772500022918,33.347898999909305],[-96.32778399978042,33.34788099991979],[-96.32856100028035,33.34779099991634],[-96.33107600010656,33.34750199973489],[-96.33191499963247,33.34740599981032],[-96.3320419998541,33.34739000031286],[-96.33249999961349,33.34733299987499],[-96.33425799992956,33.3471180001519],[-96.33484399973548,33.34704699982654],[-96.33550400005957,33.34696400032407],[-96.33748599978333,33.346721999722675],[-96.3381469999323,33.346642999631925],[-96.33880200023354,33.3465620003573],[-96.34076700023883,33.346323000316836],[-96.34142300036494,33.346243000304305],[-96.34165500016853,33.34621499986985],[-96.34168299975762,33.34620999981808],[-96.34246299973232,33.34611399996985],[-96.34272300002331,33.34608300005874],[-96.34322400033872,33.346021000203514],[-96.34472900003651,33.34583799981645],[-96.34523100017684,33.345777000102295],[-96.34617699983286,33.345661000195726],[-96.34779000038398,33.345463999838614],[-96.3490160004225,33.34531199997844],[-96.34996299990344,33.34519800009674],[-96.35081400002322,33.34509299997495],[-96.35336900003244,33.34478000025431],[-96.35349399970588,33.34476600017815],[-96.35422099997712,33.344677999862505],[-96.35466899969079,33.344622999807676],[-96.35514499989186,33.344565000230695],[-96.35522100005983,33.344556000267005],[-96.35532999983978,33.34454299973413],[-96.35543899961971,33.34452900037031],[-96.35556400019149,33.34451399992377],[-96.35568899986498,33.344499000225156],[-96.35601399955499,33.34445899976536],[-96.35698500022367,33.34434000010869],[-96.35705899984353,33.34433100012175],[-96.35714400023234,33.344320999801646],[-96.357916999636,33.344225999704946],[-96.35857399958704,33.34414499968281],[-96.35884200027395,33.34411300023698],[-96.36034899962156,33.34392700008284],[-96.36487299983403,33.34337300011012],[-96.36638099990485,33.3431900001615],[-96.3666810003788,33.34315300013748],[-96.36758400037712,33.343043000317984],[-96.3678859996026,33.34300699982837],[-96.36880899969243,33.342894000279486],[-96.36936000023655,33.34282599980949],[-96.37378499981651,33.34228400010271],[-96.37526000027536,33.342103999689286],[-96.37585699995194,33.34203899967788],[-96.37710599955668,33.34190399996097],[-96.38264699957027,33.34131499980392],[-96.38449500029805,33.34111899973977],[-96.38450000032091,33.341202000310886],[-96.38449000027516,33.34132099975295],[-96.38448899955193,33.341337000365556],[-96.38449100010008,33.34174999991716],[-96.38449500029805,33.34181300017268],[-96.38448400042739,33.3419320002808],[-96.38446799963553,33.34213599987336],[-96.38445900031303,33.34282199991264],[-96.38446099996284,33.34355700001514],[-96.38446099996284,33.34382999963097],[-96.38444500006932,33.34458399973405],[-96.38444500006932,33.34543799979249],[-96.38443599984848,33.34610700003929],[-96.38441400010718,33.34889499978295],[-96.38442199960478,33.35025799964285],[-96.38444000004644,33.35051400007534],[-96.38448100005434,33.351843000003434],[-96.38449100010008,33.353015000331425],[-96.3845069999936,33.35338900013818],[-96.38450799981852,33.354134000275465],[-96.38451100019157,33.354464000050996],[-96.3845210002373,33.356297999662196],[-96.3845210002373,33.35664000027572],[-96.3845210002373,33.35830800000139],[-96.38451100019157,33.35906300018194],[-96.38451000036665,33.36117900018272],[-96.38451000036665,33.361825000247585],[-96.38451100019157,33.3625460002596],[-96.38452500043526,33.36536499998639],[-96.38452600026017,33.365542000056614],[-96.38452200006222,33.36567799996769],[-96.38452500043526,33.3659980001556],[-96.38452399971204,33.366473000093116],[-96.38452399971204,33.36670100025239],[-96.38452600026017,33.36692200005694],[-96.38453700013083,33.368438000023495],[-96.38453799995575,33.368633000047055],[-96.38454999965131,33.36883099978536],[-96.38454899982638,33.36926599969657],[-96.38454700017658,33.370197999679135],[-96.38454600035166,33.370226999935355],[-96.38454399980353,33.37032200016384],[-96.38454399980353,33.37035299969474],[-96.3845549996742,33.37130399970781],[-96.38458900000936,33.374158000370784],[-96.38460099970494,33.37511000002244],[-96.38459999988004,33.375129000360204],[-96.38459900005512,33.375187999803146],[-96.38459900005512,33.375208000101075],[-96.3845980002302,33.375222999758954],[-96.3845970004053,33.375270000170396],[-96.3845970004053,33.375285999793896],[-96.38459200038241,33.375481000220184],[-96.38458399998649,33.37584799970602],[-96.38457899996362,33.3760670003436],[-96.38456100042028,33.37626199976902],[-96.38455399984927,33.376624999866216],[-96.38454999965131,33.37763800020191],[-96.38454999965131,33.37775500019668],[-96.38453700013083,33.38223800030243],[-96.38453299993289,33.38373200002567],[-96.38454499962843,33.3847139996807],[-96.38458200033668,33.38765899976974],[-96.38459300020733,33.38850699971202],[-96.38458900000936,33.38864299971849],[-96.3845849998114,33.38879499965041],[-96.38457300011584,33.389248999720074],[-96.38456999974278,33.38940299972059],[-96.38457599959058,33.389956999940615],[-96.38458700035953,33.390871999902394],[-96.38458700035953,33.391028000368486],[-96.38458700035953,33.391621999782664],[-96.38458800018445,33.392177999675084],[-96.38459300020733,33.392353000371656],[-96.38458599963634,33.39362500012261],[-96.38458700035953,33.39368900008987],[-96.3845980002302,33.39458199992036],[-96.38461599977356,33.39605599976152],[-96.38461699959844,33.39611400026777],[-96.3846190001466,33.396330000157576],[-96.38462099979641,33.39645600034539],[-96.38466099997939,33.396619999887584],[-96.38467000020023,33.39665800015806],[-96.38468000024596,33.3966990003523],[-96.38475600041396,33.39678800028674],[-96.38473700014735,33.3969560003611],[-96.38467299967495,33.39756400034419],[-96.38460200042815,33.39782600013072],[-96.38484400027751,33.39785800007336],[-96.38521099980031,33.397906999681545],[-96.38531999958025,33.39791999974133],[-96.38564799964331,33.397964999702474],[-96.38575800014647,33.39797999993427],[-96.3859010002616,33.39799800005908],[-96.38632999970869,33.39805500030471],[-96.38647399964874,33.39807499984263],[-96.38681099993262,33.39808599969895],[-96.38738900024094,33.39810500026574],[-96.39013699969564,33.39819900032453],[-96.39105300011279,33.39823100012988],[-96.39110599981623,33.39823199984236],[-96.39126800019794,33.398238000367],[-96.3913219997263,33.39824100025416],[-96.39140499956697,33.398242999678864],[-96.39165700036038,33.39825099962724],[-96.39167800027677,33.39825200008947],[-96.39174100002595,33.3982440001412],[-96.39181100034614,33.39823400001727],[-96.39183200026255,33.398286000049005],[-96.39188900016396,33.39828899993451],[-96.3924409996347,33.398327999936576],[-96.3926249997577,33.39834099993334],[-96.39276200002506,33.39835000033383],[-96.39285099971353,33.3983560001003],[-96.3931729999288,33.39837900020125],[-96.39331000019614,33.39839000001914],[-96.39336299989962,33.39839500007225],[-96.39380999978833,33.39840800005902],[-96.39394200003284,33.39841199965071],[-96.39409199982065,33.398415000281844],[-96.394229000088,33.39834199964455],[-96.39457100039476,33.398330999820615],[-96.39477300006112,33.39832500005238],[-96.39634399988114,33.398273999756036],[-96.40102700010226,33.39812300036466],[-96.4023529996999,33.398079999913854],[-96.40238000036238,33.39807900019962],[-96.40252599995222,33.39810699969358],[-96.40294899955155,33.39818999990845],[-96.40340700020924,33.39821699965405],[-96.40483800028719,33.3982999997638],[-96.4052280002745,33.39830999988013],[-96.40612700007489,33.39827899981581],[-96.40719599975456,33.398242999678864],[-96.4079020001094,33.39821800011668],[-96.4089220002836,33.39818400013053],[-96.40899199970548,33.39818799973253],[-96.40919900029304,33.39818299966751],[-96.41059199983782,33.39818900019548],[-96.4110410002747,33.39819900032453],[-96.41143899975964,33.39820799998976],[-96.41171999996703,33.39821500022869],[-96.4121059997564,33.398218999829304],[-96.41633100021812,33.39827200033197],[-96.41778300021245,33.39820599981425],[-96.41865699989847,33.398210000165214],[-96.41966000035423,33.39821300005333],[-96.42039299957491,33.39821599994135],[-96.42235199973244,33.39822399989225],[-96.42261799987122,33.39822399989225],[-96.42347700038697,33.39822800024239],[-96.4247059999002,33.39823499972977],[-96.42930000043285,33.3984130001111],[-96.42962599994777,33.398426000095185],[-96.43047399969451,33.39845999998665],[-96.44364799994862,33.398747999945336],[-96.44455400032003,33.39876700036736],[-96.44560999958092,33.39879199977167],[-96.44727199963751,33.39882799968117],[-96.4481789998338,33.39884799979111],[-96.4486790003243,33.39885900029956],[-96.44881599969334,33.39885599968377],[-96.45054700024524,33.39881199988989],[-96.45074800008669,33.39880900002245],[-96.45291300010854,33.39883100029793],[-96.45451800026375,33.39884799979111],[-96.45726099969558,33.39887399962713],[-96.457654000056,33.3988770002423],[-96.46002400011724,33.398902000364885],[-96.4600559999043,33.3989009999102],[-96.46250899980625,33.39885900029956],[-96.46946699965406,33.39874099974934],[-96.46996499959644,33.39873200013932],[-96.47245100000866,33.39868999969708],[-96.47253600039748,33.39868999969708],[-96.47279099976728,33.3986930003186],[-96.4728760001561,33.39869400002576],[-96.4752760003546,33.39872200007161],[-96.47577900031985,33.398729000269114],[-96.48448799991273,33.39885900029956],[-96.48739199990139,33.3989030000697],[-96.48762799990294,33.39890699963861],[-96.48798100008035,33.39891500027582],[-96.48800000034691,33.39891500027582],[-96.4882870004021,33.39892100000333],[-96.48833699973252,33.398921999707866],[-96.48857399955897,33.39892699973036],[-96.48863800003139,33.39892699973036],[-96.48872599989492,33.3989300003437],[-96.48883100037523,33.3989300003437],[-96.48889599977424,33.39893300020696],[-96.48895299967566,33.39893300020696],[-96.48912599992802,33.39893899993322],[-96.48915100004238,33.39893999963756],[-96.48915100004238,33.39890699963861],[-96.48924800012676,33.398908000093286],[-96.4895400002048,33.39891099995731],[-96.4896380001141,33.398911999661955],[-96.49176200012806,33.39893600007011],[-96.49813499999487,33.399011000365434],[-96.50025999983376,33.39903599969954],[-96.50029499999386,33.399034000293014],[-96.50039999957583,33.39903299983984],[-96.50043599956086,33.39903299983984],[-96.50077399966966,33.39903299983984],[-96.50178799999608,33.39903299983984],[-96.50212699992977,33.39903299983984],[-96.50239399989348,33.39903700015274],[-96.50260300013085,33.399040000012306],[-96.50403199966064,33.39907099980513],[-96.50450899968662,33.399082000285375],[-96.50511899978198,33.39909300001428],[-96.50600500006188,33.39910899975383],[-96.5069509997179,33.39912599994255],[-96.50756199963816,33.399136999665885],[-96.50828800008449,33.399148999839745],[-96.51046599962682,33.39918600005277],[-96.51119299989806,33.39920000037253],[-96.51136000030263,33.399201999775194],[-96.51186300026788,33.399208999934096],[-96.51203099959903,33.39921300023889],[-96.51230500013376,33.39921699979352],[-96.51268000005248,33.3992230002501],[-96.51270400034193,33.3992230002501],[-96.5130540001463,33.39922800025533],[-96.51312899959105,33.39922899995633],[-96.513357000095,33.39923300026021],[-96.51340399995067,33.39923399996117],[-96.51620900020511,33.39927399998954],[-96.52066100044755,33.399338000296616],[-96.52071099977793,33.39933899999637],[-96.52100200003109,33.39934199984556],[-96.52569000027508,33.399394999663286],[-96.52657099963376,33.39940499965361],[-96.52835900008708,33.39942600007946],[-96.53294500022382,33.39947800014782],[-96.53333299966302,33.399481999690316],[-96.53374500028998,33.399485999982545],[-96.53440300006592,33.39949399981647],[-96.53462300017397,33.399495999962326],[-96.53871200019324,33.399542000304706],[-96.53875999987382,33.399543000002105],[-96.53983799977432,33.3995489996862],[-96.54098099997216,33.39956500009175],[-96.54102700000291,33.39956500009175],[-96.5417709999926,33.39956599978888],[-96.54251499998225,33.39956599978888],[-96.54262700013525,33.39956599978888],[-96.54288400005318,33.39957200022136],[-96.55159900039219,33.39977200015113],[-96.55279899959311,33.399634000166316],[-96.55283799995118,33.399634999862705],[-96.55468499995573,33.39968600011026],[-96.55493500020096,33.399676000152276],[-96.5549589995921,33.39967800029401],[-96.55511400030112,33.399683000272994],[-96.55651600006672,33.3997620002031],[-96.55699800011556,33.39977400029059],[-96.55800800024402,33.39979900015516],[-96.5580779996659,33.39980199998843],[-96.55842199962248,33.399818000347395],[-96.55852499955465,33.399819999735826],[-96.55865900034726,33.399821999874185],[-96.55960699965313,33.399843999893186],[-96.56049200010811,33.39988299994729],[-96.56051999969718,33.39988000011683],[-96.56061000010888,33.399870000181174],[-96.56065500031471,33.39984899986263],[-96.56068000042907,33.399850000306465],[-96.5620889998674,33.39985500027555],[-96.56422899977488,33.399861999631895],[-96.56431099979065,33.399872000318375],[-96.56436500021731,33.39987799997981],[-96.564448000058,33.399887000221064],[-96.56469800030324,33.39991700001865],[-96.56478199996883,33.399926999948846],[-96.56481100028115,33.39992900008474],[-96.56482999964942,33.399931999913505],[-96.56490099979452,33.399931999913505],[-96.56493099993175,33.399934000049285],[-96.56497299976452,33.399934000049285],[-96.56509999998615,33.399934000049285],[-96.56514299964385,33.39993499974223],[-96.56529900017779,33.39993499974223],[-96.56576699998293,33.3999380003207],[-96.56592299961852,33.3999390000136],[-96.56600700018244,33.3999390000136],[-96.56626199955225,33.39993999970643],[-96.56634699994106,33.39994100014922],[-96.56646699959167,33.39994100014922],[-96.5665179996453,33.39994100014922],[-96.56668500004986,33.39994300028479],[-96.56682700034008,33.39994300028479],[-96.56694699999069,33.399944999670346],[-96.5669960003945,33.399944999670346],[-96.56714299980926,33.399944999670346],[-96.56719200021305,33.39994600011308],[-96.56731500023673,33.39994600011308],[-96.56768699978238,33.39994899994126],[-96.56781099963096,33.399949999633975],[-96.56816399980836,33.399951000076655],[-96.56922400016553,33.39995699973262],[-96.56942300035716,33.399958000175225],[-96.56942500000699,33.399750999808894],[-96.56944599992337,33.39976900031684],[-96.56952100026643,33.39981100023755],[-96.5695949998863,33.39983199981531],[-96.57001699966068,33.39987300001198],[-96.57052299999899,33.39988900035788],[-96.57135099965423,33.3999240001199],[-96.57172499974804,33.39992900008474],[-96.57197099979535,33.3999390000136],[-96.57285000040255,33.39994600011308],[-96.57352800026997,33.39994600011308],[-96.57422299985583,33.39996899979318],[-96.57471499995042,33.39998000015979],[-96.57538100012228,33.399987999948245],[-96.5758050004448,33.40007099986635],[-96.57631199970972,33.40006000026124],[-96.57637399963397,33.40006000026124],[-96.57656199995495,33.40006199964416],[-96.57662499970414,33.40006300008554],[-96.57668099978065,33.40006399977694],[-96.57675799977353,33.40006399977694],[-96.57715699998172,33.400072999998926],[-96.57729099987601,33.400077999955194],[-96.57748000002191,33.400085999734685],[-96.5780159995991,33.40009499995438],[-96.57986599997668,33.40016900030915],[-96.57992799990096,33.40017299981978],[-96.58020300026058,33.40018200003053],[-96.5802750002306,33.40018600029054],[-96.58028899957598,33.40018699998052],[-96.58033700015488,33.40018799967049],[-96.58035600042145,33.40018900011044],[-96.58039900007917,33.40019199993023],[-96.58041199959963,33.40019100024029],[-96.58045400033073,33.400194000060026],[-96.58046799967613,33.40019499974991],[-96.58087000025735,33.40021199972622],[-96.5820770000293,33.400262999635174],[-96.58222099996934,33.40026999970855],[-96.58248000043542,33.40028199972589],[-96.58250200017673,33.400281000037],[-96.58256800029896,33.400271999836555],[-96.58259099986519,33.40026900001952],[-96.5826279996751,33.400262999635174],[-96.5826829999267,33.400254000182784],[-96.58284399958518,33.40023000013866],[-96.58340400035014,33.40025100036512],[-96.58360199981855,33.40025900012863],[-96.58421199991392,33.400281000037],[-96.58426299996754,33.400281000037],[-96.584359000227,33.40028000034809],[-96.585309000081,33.40029799999646],[-96.58559199993823,33.40028800010897],[-96.58580299982542,33.400266000202386],[-96.5898280002706,33.40023799990409],[-96.5899620001649,33.400239000343454],[-96.59140900013635,33.400256000311145],[-96.59290200013855,33.400273999964504],[-96.59486100029609,33.40029799999646],[-96.59490899997665,33.40029899968516],[-96.59675000013341,33.40032100033336],[-96.59781100031549,33.40033400003202],[-96.59877100021522,33.40034600004051],[-96.59981899997852,33.40035899973542],[-96.60148400040815,33.40037999993071],[-96.60820700007935,33.40046199978756],[-96.60858100017316,33.40046699972145],[-96.60961600041597,33.40048000014822],[-96.61011600000816,33.400485999767604],[-96.61137399983373,33.400506999932205],[-96.61226000011362,33.40052199972527],[-96.61739600007127,33.40060999980892],[-96.61869499990472,33.400630000258666],[-96.62072500020734,33.40066600015666],[-96.62079700017738,33.40066400003768],[-96.62083999983508,33.40066400003768],[-96.62120899990603,33.4006619999187],[-96.62172399956683,33.40065799968061],[-96.62325799957692,33.40064900026919],[-96.62437900003346,33.400642999911085],[-96.62507600016745,33.400640000106804],[-96.62526399959012,33.40063899967206],[-96.6256850004379,33.40064700014987],[-96.62695099976109,33.40067500031629],[-96.62732900005287,33.40068500015925],[-96.62737300043379,33.40068500015925],[-96.62977100008415,33.40073700022421],[-96.63696699958336,33.40089899982313],[-96.63936599995691,33.400952999872345],[-96.64052900024625,33.40097899982849],[-96.64663500014937,33.401114000139195],[-96.65270800044053,33.40124999991791],[-96.65325599971331,33.401261999799964],[-96.65334500030009,33.40126399990513],[-96.65382300015098,33.40127500010773],[-96.6564860001152,33.40133100002689],[-96.65650000035889,33.401333000130464],[-96.65658900004736,33.40133800001423],[-96.66186499974712,33.401456000037555],[-96.66529199979249,33.40153200008219],[-96.66728699993504,33.401576999672685],[-96.6683919995997,33.40160100009471],[-96.66918499999318,33.40161799979594],[-96.67555299983714,33.40175999981712],[-96.67606699967303,33.40177199962868],[-96.67658100040723,33.40178299976703],[-96.67679399994425,33.401788000374836],[-96.67700599965636,33.40179300023242],[-96.67906799974605,33.40183799968773],[-96.68100299961415,33.40188200019922],[-96.68284700014392,33.40192399984855],[-96.68759899996202,33.40203000005169],[-96.69394500006467,33.4021720001495],[-96.69494000012452,33.40219499999035],[-96.69603999976631,33.402219000241665],[-96.69732400042948,33.40224800031775],[-96.70015200025014,33.40229600003451],[-96.70329200024034,33.402374999838784],[-96.70362199995323,33.40238300015668],[-96.70521399968963,33.4024239998996],[-96.70595600002947,33.40243999977569],[-96.70818399980051,33.40249000021329],[-96.70892699996526,33.402506999740574],[-96.71070700002267,33.402546000099264],[-96.71247299983634,33.402586000102886],[-96.71604999966955,33.402664999643406],[-96.71780100031292,33.402703999931234],[-96.71783099955184,33.4027060000032],[-96.71811400030737,33.40271999975577],[-96.71827300031603,33.402728000041954],[-96.71896600025207,33.4027610000896],[-96.71922099962188,33.402774000173075],[-96.7192499999342,33.40277499983335],[-96.7206009996462,33.402796999854566],[-96.7246570000535,33.40286999974888],[-96.72469800006138,33.40287199981703],[-96.72600899959038,33.402895000222514],[-96.72604499957541,33.402895000222514],[-96.72610099965189,33.40289599988134],[-96.7261559999035,33.402897000290096],[-96.72619299971342,33.402897999948884],[-96.72640399960062,33.40290099967521],[-96.72703899981033,33.402911999670565],[-96.72725100042076,33.402917999871974],[-96.72741799992701,33.402922000006015],[-96.72748900007213,33.40292299966453],[-96.72770900018016,33.402928000206735],[-96.72788400008234,33.402930999932025],[-96.72796400044828,33.40293299999877],[-96.72807099968009,33.40293500006547],[-96.72820299992458,33.40293700013212],[-96.72844200029917,33.40294300033181],[-96.72912500018948,33.40295799970434],[-96.72915399960345,33.40295900011238],[-96.7295910003448,33.40296800003449],[-96.7311770002334,33.403000999990994],[-96.73160499985558,33.40300999990881],[-96.73186199977354,33.40301499969607],[-96.73271100024353,33.403031999870585],[-96.73514900007683,33.403081000310756],[-96.73755000010024,33.4031279999112],[-96.74064099968663,33.40319099997401],[-96.74072600007545,33.403184000135916],[-96.74079499967243,33.40317700029729],[-96.74086499999262,33.40317700029729],[-96.7415610003017,33.403173999830614],[-96.74271000034732,33.40320199993265],[-96.74503900040071,33.40326000016888],[-96.7455809998257,33.403273000177755],[-96.74569800000157,33.40327599989108],[-96.74615800030911,33.403286999838954],[-96.74787999974185,33.403332000020384],[-96.74856400035537,33.40334999978647],[-96.74963999970775,33.40337900023499],[-96.74999899973297,33.4033880001136],[-96.7502129999932,33.403399000047294],[-96.75100700021159,33.40341600014668],[-96.75140200022179,33.403424000368716],[-96.75155500038267,33.403427000076874],[-96.75336899987693,33.4034660000226],[-96.75365900030515,33.40347200018575],[-96.75402300035323,33.40348100005478],[-96.754466000044,33.40349400003054],[-96.75482900026718,33.40350499995082],[-96.7563930004145,33.40351700027137],[-96.75672300012737,33.403524999734174],[-96.75686200004455,33.40352800018873],[-96.75960600019961,33.40359300001305],[-96.75988900005684,33.40359999981814],[-96.7602659996254,33.40360899967386],[-96.76137899968599,33.40363599998542],[-96.76149300038713,33.40366300028858],[-96.7616459996497,33.40366399993857],[-96.76181700025222,33.403668000038266],[-96.76185200041233,33.40366699963838],[-96.76212100002584,33.40366300028858],[-96.76416200019916,33.403706000226364],[-96.76481300030238,33.403717000119805],[-96.76548199994899,33.403721999866384],[-96.76561800039143,33.40371999981779],[-96.76607899962556,33.4037280000119],[-96.7674839997642,33.403753999887606],[-96.76788700017033,33.40376099967973],[-96.7683270003864,33.40377000026871],[-96.7689890003603,33.40378199980272],[-96.76905299993442,33.40379299968653],[-96.76909599959211,33.40379299968653],[-96.76914499999592,33.40379499973344],[-96.76924399973011,33.40379600013184],[-96.76931200040048,33.40378900034253],[-96.76949800017333,33.403811999755334],[-96.77002899972766,33.40384100004963],[-96.77162399983712,33.40393299985899],[-96.77215600011469,33.40396400015592],[-96.77611100023968,33.404070999765345],[-96.77869999968571,33.40414200005018],[-96.77976699971559,33.40417100023433],[-96.7797969998528,33.40417199987847],[-96.78512899962904,33.40432000032967],[-96.7879770004395,33.40439800015187],[-96.7882169997407,33.40440600028349],[-96.78844400041972,33.40441199963185],[-96.78846199996308,33.40441199963185],[-96.7886600003298,33.40441799972966],[-96.79193300038939,33.40450700000722],[-96.79245800009595,33.40452100021951],[-96.79403599958866,33.4045659997618],[-96.79456200001843,33.40458100035394],[-96.79697599956232,33.40463399997577],[-96.80421899981552,33.40479500017096],[-96.80624099972222,33.404840000321244],[-96.8064640002033,33.40484500000319],[-96.8066340000826,33.40484999968485],[-96.80767900037115,33.404877000360656],[-96.8108150001634,33.40496299976312],[-96.81173400005524,33.40498799963443],[-96.81186100027685,33.40498900001909],[-96.81194800031548,33.40498900001909],[-96.81206600031625,33.40499199967323],[-96.81221000025631,33.40499799973098],[-96.81229800011987,33.40500199976927],[-96.81472799955726,33.40505400025015],[-96.81567499993652,33.40507399967694],[-96.81627699963596,33.405089000181356],[-96.81696399972424,33.40510700033335],[-96.82207000044296,33.40523600018846],[-96.82505200024941,33.40520199994876],[-96.8254449997115,33.405218999695336],[-96.82577299977454,33.40523400017474],[-96.82791199985714,33.40533200004352],[-96.8279369999715,33.405330000032],[-96.82864599980105,33.40536299984126],[-96.82865800039494,33.405277000084844],[-96.83400400041486,33.4055040001122],[-96.83410999982178,33.405498000089395],[-96.83430499981544,33.39819100037138],[-96.83445799997632,33.392479000325],[-96.83462700003072,33.386588999684534],[-96.8346329998785,33.38635300035923],[-96.83472800031305,33.382368000244625],[-96.8349290001545,33.37535900028937],[-96.83505499965288,33.3710009999684],[-96.83513500001884,33.36823599991141],[-96.83514300041475,33.36795699994723],[-96.8350050003225,33.36770800024814],[-96.83529499985242,33.3568050000714],[-96.83533500003537,33.35530999984539],[-96.83535199975383,33.35462500011502],[-96.83536199979955,33.35422200003777],[-96.8353659999975,33.354077999971075],[-96.83538299971597,33.35345099999901],[-96.83545999970885,33.351311999916625],[-96.835610000395,33.34711500000191],[-96.83562999958816,33.346559999744294],[-96.83574699976401,33.34327999966761],[-96.83580500038866,33.34165199967932],[-96.83590699959758,33.33882799995791],[-96.83593000006213,33.3388080003041],[-96.83595400035158,33.33878199977162],[-96.83596400039731,33.338762999752845],[-96.83597799974268,33.33872800014192],[-96.8359900003366,33.338690000076674],[-96.83599799983419,33.33865600008322],[-96.8360050004052,33.338455999941495],[-96.83602399977345,33.337300000119875],[-96.83602399977345,33.33716800030425],[-96.8360260003216,33.336944000250405],[-96.83605899993356,33.33566300003937],[-96.83609099972061,33.3340530001163],[-96.83617500028451,33.330908000044786],[-96.8362229999651,33.32929500004461],[-96.83622700016305,33.32915900033423],[-96.83627800021667,33.32746499970627],[-96.83632400024744,33.32599900010035],[-96.83636199988226,33.32463400000573],[-96.83641100028606,33.322693000283074],[-96.83642299998162,33.32205999975088],[-96.83641799995877,33.32201600014421],[-96.83640299989015,33.32198199964817],[-96.83638100014883,33.32194399978457],[-96.83634099996586,33.32190500006538],[-96.83630300033104,33.3218749996343],[-96.83627800021667,33.32186200021998],[-96.83621999959205,33.321852000322686],[-96.8362229999651,33.321740000194],[-96.83622600033814,33.32162600023695],[-96.83626800017093,33.31999999986753],[-96.8364699998373,33.312384999843935],[-96.83651000002027,33.310920000286266],[-96.83653500013462,33.30993999974689],[-96.8365400001575,33.30976100005282],[-96.83654199980732,33.30969899987177],[-96.83654600000528,33.30953700011091],[-96.8365469998302,33.309506999927514],[-96.83654799965512,33.30947399978895],[-96.83654799965512,33.309448000262506],[-96.83656400044694,33.308858999903535],[-96.83656600009675,33.308765000165074],[-96.83656600009675,33.30874800033734],[-96.83658399964013,33.308089999953395],[-96.83660100025688,33.30744299991434],[-96.8366039997316,33.307311999920756],[-96.83661299995242,33.30697800013553],[-96.83664100043983,33.30590599981159],[-96.8366539999603,33.30569199997733],[-96.83682800003757,33.30289500003741],[-96.83683899990824,33.30238700034189],[-96.83683499971028,33.301341000343555],[-96.83683499971028,33.298892000260565],[-96.83683800008333,33.29871700008303],[-96.83684099955806,33.29847499986825],[-96.8368509996038,33.29821800032615],[-96.83686300019768,33.298085999878445],[-96.8368799999161,33.29796400036773],[-96.83689599980964,33.29788900007306],[-96.836920999924,33.29776700028689],[-96.83696899960458,33.29760799973703],[-96.83698200002338,33.297570999879206],[-96.83700200011484,33.29751399988486],[-96.83703100042719,33.297442999681735],[-96.83704200029781,33.297410000233924],[-96.83704399994764,33.29593500001503],[-96.83697700000047,33.29386299963612],[-96.83701499963533,33.29180700030233],[-96.83703200025208,33.291144999742876],[-96.83708400013063,33.290662999828086],[-96.83708400013063,33.29065099971212],[-96.83706200038931,33.29001999973657],[-96.83710400022211,33.288455999736286],[-96.83716399959825,33.28617600003927],[-96.83716500032148,33.28614900007725],[-96.83720399978121,33.28466399981544],[-96.83720399978121,33.28464800006235],[-96.83720700015428,33.28453300015525],[-96.8372220002229,33.283979999869814],[-96.83727099972837,33.282147999985646],[-96.8372940001929,33.28129700019453],[-96.83732599997995,33.28010199967099],[-96.83734799972126,33.27925899983003],[-96.83737799985849,33.278089999813325],[-96.83738999955405,33.27763399989585],[-96.8373929999271,33.27753700001298],[-96.8373560001172,33.27715800031996],[-96.8373560001172,33.27708399976782],[-96.83743099956195,33.27699499985291],[-96.83751500012586,33.274343000180714],[-96.83752400034668,33.274146999731336],[-96.83760899983717,33.272496000002974],[-96.83766200043894,33.27231799974104],[-96.83768699965498,33.27224799972425],[-96.83774899957925,33.272084999853995],[-96.83776899967073,33.27187899997432],[-96.8377510001274,33.271732999699694],[-96.83765700041606,33.27157799994347],[-96.83754899956271,33.27148599992412],[-96.83750300043029,33.27122599999851],[-96.83755299976067,33.27067699973564],[-96.83755500030881,33.270611999787945],[-96.83758100024808,33.26989799985813],[-96.83758799992077,33.269713999937835],[-96.83761300003513,33.2688799999528],[-96.83779100031038,33.26294700009089],[-96.83779499961,33.26283500018696],[-96.8378230000974,33.261876999929655],[-96.83787300032613,33.259513999980875],[-96.83799100032691,33.25622300020637],[-96.83799299997672,33.25607299993056],[-96.83815199998539,33.24954700020632],[-96.83818999962021,33.24895200016716],[-96.83818499959735,33.248815999889935],[-96.83820100038919,33.24833100012795],[-96.83824999989469,33.247768000332684],[-96.83826800033634,33.24755299998903],[-96.8382940002756,33.24699999990415],[-96.83833399956026,33.24579100017038],[-96.83834199995619,33.24551200034194],[-96.83845099973614,33.24186500032173],[-96.83845999995695,33.240979999678245],[-96.83847400020066,33.23971099982172],[-96.83852699990409,33.23732200004812],[-96.83855100019356,33.2362359998081],[-96.83864800027794,33.231886000003314],[-96.83838899981184,33.230538000330775],[-96.83839600038286,33.230179000129596],[-96.83852699990409,33.226718000271845],[-96.83854500034577,33.226253999748025],[-96.83855600021644,33.225973999757024],[-96.83858800000348,33.225129000187245],[-96.83861999979054,33.22428299976331],[-96.83864200043016,33.223693000176546],[-96.83866800036942,33.222997999793826],[-96.83870400035444,33.22203400033482],[-96.83880200026373,33.2194789997778]]]]},"properties":null}